{"type": "FeatureCollection", "features": [{"type": "Feature", "properties": {"date": "2026-06-28", "label": "Island Heights \u2192 Stamford"}, "geometry": {"type": "LineString", "coordinates": [[-74.1361005977, 39.9449228961], [-74.1360705066, 39.9450187013], [-74.1360469535, 39.9450267479], [-74.1362057906, 39.9450412486], [-74.136197241, 39.9452984054], [-74.1352359205, 39.9446256738], [-74.1337234899, 39.942976702], [-74.1306817811, 39.9412766006], [-74.1223172285, 39.9392294046], [-74.104937939, 39.943127241], [-74.1021128185, 39.9469339661], [-74.1024617571, 39.9563971348], [-74.1026879847, 39.9696383625], [-74.1066729091, 39.9816846661], [-74.102237206, 39.9939237535], [-74.0901532676, 40.0029165298], [-74.0766815376, 40.0149681978], [-74.0639239457, 40.0263786502], [-74.0569417365, 40.0333155971], [-74.0557768196, 40.0356681459], [-74.0557015501, 40.0360198505], [-74.0549310017, 40.0392009504], [-74.0541928913, 40.0415738672], [-74.0526770242, 40.0446131453], [-74.0520405024, 40.0458275992], [-74.0516064037, 40.0465116464], [-74.0500380658, 40.0496924948], [-74.0506788623, 40.0529548153], [-74.0523422509, 40.0557890721], [-74.0524328593, 40.0589166954], [-74.0510887373, 40.0611472037], [-74.0502322745, 40.063612489], [-74.0518669132, 40.0655399915], [-74.0538357385, 40.0668982789], [-74.0554595646, 40.0680490304], [-74.0573058464, 40.0693656597], [-74.0582960006, 40.0701574981], [-74.0588129964, 40.0705633499], [-74.0590618551, 40.0708144717], [-74.0591945406, 40.070970878], [-74.059472736, 40.0713068247], [-74.059878923, 40.0717247464], [-74.0605434403, 40.0727896672], [-74.0607379004, 40.0731920823], [-74.0610261541, 40.0737943221], [-74.0613160841, 40.0743561611], [-74.0615169145, 40.0747890864], [-74.0617620014, 40.0752265379], [-74.0622977726, 40.0761052966], [-74.0625456255, 40.0765457656], [-74.0630986635, 40.0771660265], [-74.0636992268, 40.0778238382], [-74.0638762526, 40.0780431926], [-74.0640213434, 40.0782151893], [-74.0644154605, 40.0786099769], [-74.0645929053, 40.0787994079], [-74.0649684984, 40.0793552957], [-74.0652219672, 40.0799525902], [-74.0656719916, 40.0810170919], [-74.0661398694, 40.0821981858], [-74.0664482396, 40.0831012521], [-74.066625433, 40.0834709778], [-74.0667529218, 40.0837745704], [-74.06689642, 40.0841900613], [-74.0669834241, 40.0846851803], [-74.0670695063, 40.0850705802], [-74.0671651438, 40.0855143182], [-74.0674446803, 40.0878489297], [-74.0675197821, 40.0887363218], [-74.0674041957, 40.0894176029], [-74.0648471285, 40.0918600056], [-74.0575662721, 40.0985125545], [-74.0554568823, 40.1025538053], [-74.0537125245, 40.1036644913], [-74.0516647417, 40.105447825], [-74.0513830259, 40.1056097634], [-74.0514030587, 40.1056153793], [-74.0514076687, 40.1056510024], [-74.0514324792, 40.1057002041], [-74.051319994, 40.1056898944], [-74.0507324226, 40.1059214026], [-74.0498106647, 40.1061164495], [-74.0480545722, 40.1062037889], [-74.0436780453, 40.1059625577], [-74.0394367184, 40.1050113793], [-74.0370073915, 40.1038778946], [-74.0345239174, 40.1024639513], [-74.0318257827, 40.1011487469], [-74.0293102898, 40.1004102174], [-74.0278197359, 40.1009345055], [-74.0254018921, 40.1055621542], [-74.021687787, 40.1126956567], [-74.0186290629, 40.1190717705], [-74.0159505419, 40.1240386348], [-74.0139254741, 40.1291629113], [-74.0110032912, 40.1385064702], [-74.007807523, 40.1480711438], [-74.0039735567, 40.1569707971], [-74.0009820554, 40.1638387609], [-73.9987543132, 40.1690228842], [-73.9970215224, 40.1730213035], [-73.9952864684, 40.177135393], [-73.9931970276, 40.1820831466], [-73.9889811818, 40.1916616503], [-73.9854553342, 40.1999116223], [-73.9826769009, 40.2063583117], [-73.9792692382, 40.2142383903], [-73.9757551253, 40.2223904617], [-73.9728409052, 40.2292059548], [-73.9704365563, 40.2347844467], [-73.9667874109, 40.2432670165], [-73.9627911709, 40.2524814941], [-73.9587544464, 40.2617930342], [-73.9584039152, 40.2679808903], [-73.9607628342, 40.2735350747], [-73.9629619941, 40.278627919], [-73.962247353, 40.28251159], [-73.9625634346, 40.2870368958], [-73.9614775591, 40.2945984621], [-73.9601585828, 40.3014834411], [-73.961646622, 40.3054980375], [-73.9612315502, 40.3129555844], [-73.9594304468, 40.3219414037], [-73.9607546199, 40.3303159308], [-73.9591970108, 40.3340364061], [-73.9584145602, 40.3389541525], [-73.9597873483, 40.344407754], [-73.9606938511, 40.3470874485], [-73.9609861281, 40.3567252122], [-73.96064247, 40.3661189787], [-73.9594925568, 40.3755649645], [-73.9600528032, 40.3858078178], [-73.9603612572, 40.3911727387], [-73.9604180865, 40.4010148533], [-73.9602299966, 40.4060007446], [-73.9612499904, 40.4109833669], [-73.9644331858, 40.4224899597], [-73.9676117711, 40.4338620231], [-73.9708149154, 40.4453255329], [-73.9734353498, 40.4548088182], [-73.9760645013, 40.4641910177], [-73.9828088321, 40.4729829635], [-73.9875745308, 40.4775587283], [-73.9907560498, 40.4798503406], [-73.9927876554, 40.4809721746], [-73.9949225262, 40.4823929071], [-73.9973569661, 40.4840753227], [-73.998683067, 40.4854046926], [-73.9996432979, 40.4869072326], [-74.0007301793, 40.4897074588], [-74.0039727185, 40.4939098097], [-74.0067860205, 40.4977760464], [-74.0102030709, 40.5018121004], [-74.0172994416, 40.50881451], [-74.0199877694, 40.5151504744], [-74.0268164221, 40.5252874643], [-74.0305775497, 40.5345894489], [-74.0341854561, 40.542678237], [-74.0362181515, 40.5501708202], [-74.0396732558, 40.5626606103], [-74.0435612015, 40.5741856433], [-74.0456091519, 40.5856008735], [-74.04633075, 40.5947607849], [-74.0469377674, 40.5979312398], [-74.0475810785, 40.6011048798], [-74.0484351106, 40.6050029676], [-74.0488651861, 40.6072148681], [-74.0509338398, 40.6134396046], [-74.0513597243, 40.615402814], [-74.052344095, 40.618922459], [-74.0531842969, 40.6271820702], [-74.0532331634, 40.6338744331], [-74.0536104329, 40.6450983044], [-74.0513458941, 40.6570546702], [-74.0482157562, 40.6666723173], [-74.0459600184, 40.6750995666], [-74.0453689266, 40.6782213226], [-74.0447791759, 40.6804668345], [-74.0440878365, 40.6834125705], [-74.0433813259, 40.6852347124], [-74.042437356, 40.6864512619], [-74.042555457, 40.686532231], [-74.0425561275, 40.6865986157], [-74.0425744839, 40.6866142899], [-74.0426195785, 40.6866307184], [-74.0426233504, 40.6866528466], [-74.0406095143, 40.68741275], [-74.0381826181, 40.688593844], [-74.0356818773, 40.6895429268], [-74.0313325915, 40.691367751], [-74.0296120383, 40.6922893412], [-74.0258563589, 40.693799844], [-74.0203853231, 40.6956207287], [-74.017456267, 40.6963420752], [-74.0095910244, 40.697671948], [-74.0063644107, 40.6990752462], [-74.0041098464, 40.7005145866], [-74.0020215791, 40.7021345571], [-74.0006080549, 40.7028042711], [-73.9986752719, 40.7038521767], [-73.9967883378, 40.7046911214], [-73.9939605352, 40.7057107799], [-73.9916338865, 40.7059227582], [-73.9888989553, 40.7060503308], [-73.9862639364, 40.7064068969], [-73.9829064813, 40.7072047703], [-73.9813723415, 40.7076699659], [-73.9790933859, 40.7084485609], [-73.9767388254, 40.7092668023], [-73.9748456888, 40.7104428671], [-73.973520007, 40.7123096846], [-73.9726053737, 40.7140134741], [-73.9709627721, 40.7170641515], [-73.9702566806, 40.7198206242], [-73.9698877931, 40.7215335499], [-73.9685160108, 40.7259306125], [-73.9680137672, 40.7311016601], [-73.9676118549, 40.7330472674], [-73.9676215779, 40.7379681151], [-73.9666084573, 40.7425204106], [-73.9661911223, 40.7449251786], [-73.965978222, 40.7462170813], [-73.9651139639, 40.7479465194], [-73.9633402694, 40.7498371415], [-73.9611208253, 40.7527086139], [-73.9597599395, 40.7543301769], [-73.9579895139, 40.7562405802], [-73.9569411054, 40.7574807666], [-73.9560408052, 40.7584864274], [-73.9550570212, 40.7595623285], [-73.9540866483, 40.7605145127], [-73.9527957514, 40.7618391886], [-73.9507845975, 40.7641422842], [-73.9495640248, 40.7655269746], [-73.9479455631, 40.7675127313], [-73.9447211288, 40.7707791589], [-73.9428217057, 40.7730084099], [-73.9412447345, 40.7747041527], [-73.9407225419, 40.7754344679], [-73.9401244093, 40.7762218639], [-73.9391496778, 40.7772856951], [-73.9352743886, 40.7791567035], [-73.932280289, 40.7789791748], [-73.9293107484, 40.7790733036], [-73.9278561529, 40.7793563604], [-73.926127553, 40.7800421678], [-73.924152106, 40.7810577191], [-73.9229559246, 40.7817145251], [-73.9218905848, 40.7825038489], [-73.92057647, 40.7839069795], [-73.9190415759, 40.7856685203], [-73.9175945241, 40.787218418], [-73.9161985181, 40.7886569202], [-73.9149941225, 40.7899170555], [-73.9112174045, 40.793017773], [-73.9096523356, 40.7947773021], [-73.9068840444, 40.7979149837], [-73.9050121978, 40.7998239622], [-73.9020698983, 40.8022177499], [-73.9006311446, 40.8028359152], [-73.8992395811, 40.8032059763], [-73.8966621459, 40.8035248239], [-73.8942860439, 40.8031295333], [-73.8927348051, 40.8027520962], [-73.8895602431, 40.8014734369], [-73.887239797, 40.8005096857], [-73.8852877356, 40.7998440787], [-73.8829637691, 40.7991947327], [-73.8762042671, 40.797679536], [-73.8718467671, 40.7971382327], [-73.8674467709, 40.7974594273], [-73.8639899902, 40.7979737408], [-73.8563215546, 40.7985966839], [-73.8539507333, 40.7986771502], [-73.8514228351, 40.7988826744], [-73.8496001903, 40.7990930602], [-73.8476067223, 40.7993407454], [-73.8417642843, 40.7999930251], [-73.8374723308, 40.8004659321], [-73.8344115112, 40.80101436], [-73.831536686, 40.8016868401], [-73.8288594224, 40.8024210948], [-73.8237017021, 40.8035933878], [-73.8204714004, 40.8035772108], [-73.819126524, 40.8033850975], [-73.8161496911, 40.8028090093], [-73.8097820431, 40.8020868246], [-73.7990641035, 40.8008586243], [-73.7947973795, 40.8002586477], [-73.7926823739, 40.7999515347], [-73.7895881105, 40.7998566516], [-73.7838776037, 40.8020255528], [-73.7831933051, 40.8032194711], [-73.7819690444, 40.8056586049], [-73.7806483917, 40.8132548723], [-73.7788223941, 40.8226742875], [-73.7785157003, 40.8242190722], [-73.7783769798, 40.8252543211], [-73.7782441266, 40.8272164408], [-73.7781048194, 40.8289100882], [-73.7779255304, 40.8300740831], [-73.7776485085, 40.8320150804], [-73.7770791259, 40.8349859621], [-73.7763608806, 40.8379497193], [-73.7756494246, 40.8408962935], [-73.7752304971, 40.8492538054], [-73.7777042482, 40.8587590512], [-73.7775395438, 40.8615824115], [-73.77565437, 40.8634996042], [-73.7735744007, 40.86467986], [-73.7709475122, 40.8670982905], [-73.769693831, 40.8680371474], [-73.7680214737, 40.8694437146], [-73.7636089046, 40.8717727102], [-73.7598173507, 40.8729165886], [-73.7570596207, 40.8742450364], [-73.7544026412, 40.8756778389], [-73.7520084344, 40.8767259959], [-73.7498573866, 40.8778518531], [-73.7451460026, 40.8821383584], [-73.739395095, 40.8892837632], [-73.7382696569, 40.8906545397], [-73.7367185019, 40.8925853111], [-73.7353250105, 40.894306032], [-73.7332783174, 40.8968869876], [-73.7321524601, 40.8982740249], [-73.7310957536, 40.899547236], [-73.7290380802, 40.9021150321], [-73.726801537, 40.9048587643], [-73.7143452745, 40.9117225371], [-73.7089548726, 40.9158612695], [-73.7008514162, 40.9203794505], [-73.6870917678, 40.9289930295], [-73.6741749197, 40.9365550987], [-73.6589687224, 40.9434428439], [-73.6450655758, 40.9501443431], [-73.6302322894, 40.9572985489], [-73.6153242365, 40.9644535091], [-73.6005077977, 40.9715888556], [-73.5858598351, 40.9786415566], [-73.5742491391, 40.9842223953], [-73.5711804405, 40.9861920588], [-73.567318311, 40.9889879264], [-73.563242862, 40.9918942675], [-73.5621351097, 40.9924499877], [-73.5574455187, 40.9949958231], [-73.5522370879, 40.9989932366], [-73.5497225169, 41.0021129809], [-73.5403983202, 41.0067772586], [-73.5368298925, 41.0111647658], [-73.5366183333, 41.0161566921], [-73.5368697904, 41.0200003814], [-73.5369635839, 41.0229923856], [-73.5370240174, 41.026065778], [-73.5371949244, 41.0286556184], [-73.5369928367, 41.0308714584], [-73.5364449956, 41.0330250207], [-73.5368432198, 41.0325563885], [-73.5362443328, 41.0317119118], [-73.5351231694, 41.0315058008], [-73.5347467382, 41.0320102237], [-73.5347303096, 41.0323797818], [-73.5348098539, 41.0323832184], [-73.5348484945, 41.0323713999], [-73.5348751489, 41.0323895887]]}}, {"type": "Feature", "properties": {"date": "2026-06-29", "label": "Stamford \u2192 Stonington"}, "geometry": {"type": "LineString", "coordinates": [[-73.5348966066, 41.032312056], [-73.5348192416, 41.0323392134], [-73.5348259471, 41.0323515348], [-73.5348147992, 41.0323742498], [-73.534870958, 41.0324075259], [-73.5348976962, 41.0324043408], [-73.5349377617, 41.0323956236], [-73.5349261947, 41.0323730763], [-73.5349318944, 41.0323592462], [-73.5349676013, 41.0323717352], [-73.5349741392, 41.0323642753], [-73.5349650867, 41.0323517025], [-73.5350213293, 41.0323646106], [-73.5350375902, 41.0324039217], [-73.5350537673, 41.0324806999], [-73.5350839421, 41.0325139761], [-73.5351386759, 41.0325235315], [-73.535102047, 41.0325604957], [-73.5351348203, 41.032583043], [-73.5351485666, 41.0326139722], [-73.5351070762, 41.0326544568], [-73.5350929946, 41.0326633416], [-73.5350686871, 41.0326794349], [-73.5350231733, 41.0326946899], [-73.5349897295, 41.0326420516], [-73.5347459, 41.032479275], [-73.5353094991, 41.031517284], [-73.5370074213, 41.0315850098], [-73.5374810826, 41.0297690704], [-73.5377124231, 41.0277092177], [-73.5375798214, 41.0246432852], [-73.5374297854, 41.0217265505], [-73.5371512547, 41.0180554446], [-73.5364689678, 41.0142179579], [-73.5345267132, 41.0111015663], [-73.5318362899, 41.0082771163], [-73.5279081948, 41.0050437972], [-73.5225527454, 41.0028458945], [-73.5175096896, 41.0042043496], [-73.5121354647, 41.0056220647], [-73.5026609804, 41.007455606], [-73.4855458885, 41.0107656196], [-73.4706949163, 41.013686629], [-73.453054782, 41.017030254], [-73.4414714947, 41.0192831419], [-73.4379908256, 41.0199661832], [-73.4333861433, 41.0208514798], [-73.4309941158, 41.0213121492], [-73.4287928604, 41.0217714775], [-73.4265513718, 41.0221831966], [-73.4251507558, 41.0224723723], [-73.4232374188, 41.0228441935], [-73.4213255066, 41.0231995024], [-73.4196136706, 41.0235360358], [-73.4180684667, 41.023830995], [-73.4166919068, 41.0241029877], [-73.4142362606, 41.0245697759], [-73.4128611255, 41.0248443671], [-73.4099330753, 41.0254013445], [-73.4074726515, 41.0258758441], [-73.4044095688, 41.0264674388], [-73.4002628736, 41.0272740293], [-73.3925815299, 41.0287477355], [-73.3869025391, 41.0298493691], [-73.381068483, 41.0309911519], [-73.3676891215, 41.0335520748], [-73.352015717, 41.0366131458], [-73.3441796433, 41.0381284263], [-73.3268140163, 41.0415137932], [-73.3082310855, 41.0451161675], [-73.2880900428, 41.0490130819], [-73.2710525673, 41.0535848234], [-73.259547567, 41.0619767848], [-73.2472042926, 41.0695322324], [-73.2297965884, 41.073209038], [-73.2109443471, 41.0770552419], [-73.1962761004, 41.0800017323], [-73.1818881445, 41.0829177126], [-73.1665257923, 41.0858440027], [-73.1515871454, 41.0886818636], [-73.1339195184, 41.0920190345], [-73.1242083292, 41.0938435234], [-73.1203635503, 41.0945695639], [-73.1160518993, 41.0953864641], [-73.1126574799, 41.0960345529], [-73.1040315796, 41.0976679344], [-73.0904813949, 41.1002302822], [-73.0803298205, 41.1021563597], [-73.0622346327, 41.1055589933], [-73.0456924438, 41.1086970102], [-73.0290519353, 41.1118321773], [-73.0116976239, 41.1151058134], [-72.9945958592, 41.1183242127], [-72.9779541772, 41.1214779038], [-72.9640043434, 41.1241482943], [-72.9467910994, 41.1274218466], [-72.929397393, 41.1312161665], [-72.9132576194, 41.1342629883], [-72.8965356387, 41.1374325212], [-72.879447788, 41.1406831071], [-72.8712753486, 41.142205596], [-72.8551028017, 41.145250909], [-72.8387967311, 41.1483326834], [-72.8230831772, 41.1513027269], [-72.8070779331, 41.1543151829], [-72.7911724336, 41.1577070877], [-72.7760524862, 41.1612984817], [-72.7594612632, 41.164433565], [-72.7418544888, 41.1676139105], [-72.7259037271, 41.1703624204], [-72.7096871752, 41.1731862836], [-72.6947799604, 41.1760150082], [-72.6793321967, 41.1793162208], [-72.6640829165, 41.1826454289], [-72.6489229873, 41.1861180514], [-72.6344414055, 41.1890253145], [-72.6284480933, 41.1902008764], [-72.6230043825, 41.1913128197], [-72.6181556191, 41.192303393], [-72.6129215397, 41.1933790427], [-72.6080926415, 41.1943440512], [-72.6014441997, 41.1956978124], [-72.585566612, 41.1989729572], [-72.5703744125, 41.2020603474], [-72.5554763339, 41.2050603982], [-72.548264293, 41.2065479346], [-72.5418111496, 41.2078408431], [-72.5371944811, 41.2087885011], [-72.5336734951, 41.2095575407], [-72.5276952703, 41.2108372059], [-72.5247758534, 41.2114635855], [-72.5215717033, 41.2121698447], [-72.5185222831, 41.2128275726], [-72.51531302, 41.2135132961], [-72.5063976925, 41.2152568996], [-72.5037053414, 41.2154329196], [-72.4999442976, 41.2163675018], [-72.4965228885, 41.2168929633], [-72.4933662638, 41.2172126491], [-72.4905692227, 41.2177011464], [-72.4865376949, 41.2187929731], [-72.4836617801, 41.2194897607], [-72.4809118453, 41.2200463191], [-72.478748979, 41.2204534281], [-72.4769048765, 41.2208232377], [-72.4749000091, 41.2211964], [-72.4730558228, 41.2215854041], [-72.4709262326, 41.2220068462], [-72.4658334721, 41.2230018619], [-72.4622756056, 41.2236921117], [-72.4595373217, 41.2242396176], [-72.4556799699, 41.2249906361], [-72.453056518, 41.2254948914], [-72.4379763845, 41.2284640968], [-72.4266958516, 41.2306656875], [-72.4150283262, 41.23299703], [-72.407830786, 41.2343859114], [-72.4024392944, 41.2354604714], [-72.3935962189, 41.2370172422], [-72.3900146317, 41.2376085017], [-72.3847202025, 41.2384207081], [-72.3814476561, 41.2389125582], [-72.3758218903, 41.2397446297], [-72.3694323655, 41.2406533118], [-72.3663021438, 41.2410841417], [-72.3628680781, 41.2415716331], [-72.3603789043, 41.2419258524], [-72.3564404156, 41.2424783036], [-72.3509654403, 41.2432475109], [-72.3483379651, 41.2436180748], [-72.3466250394, 41.2438576296], [-72.3398937006, 41.244834289], [-72.3297104426, 41.2462522555], [-72.3250589892, 41.2469026074], [-72.3205356952, 41.2476071063], [-72.3167596478, 41.2482105196], [-72.3130353168, 41.24884394], [-72.3098372854, 41.249366384], [-72.3052970599, 41.2501233537], [-72.301254971, 41.250760546], [-72.2951403726, 41.2516125664], [-72.2854748648, 41.2529470492], [-72.2802902386, 41.2535673101], [-72.2714868933, 41.2545800116], [-72.270079907, 41.2547411118], [-72.2648778465, 41.2553221453], [-72.2565427143, 41.2563135568], [-72.253764281, 41.2567147985], [-72.2493615188, 41.2573639769], [-72.2385714948, 41.2589144614], [-72.2268588748, 41.2603760138], [-72.2189720068, 41.2612918206], [-72.2106502857, 41.2622598466], [-72.2046643496, 41.2629651837], [-72.2012006957, 41.2633950915], [-72.1985417046, 41.2636886258], [-72.1930435952, 41.2643440068], [-72.1828027535, 41.2655507494], [-72.1790395305, 41.26599323], [-72.1706986148, 41.2669812888], [-72.1667568572, 41.267428128], [-72.1621835232, 41.2679573614], [-72.1576856263, 41.2685134169], [-72.1525196917, 41.2692456599], [-72.1500284225, 41.2696471531], [-72.1446370147, 41.2702705152], [-72.1416349523, 41.2705316115], [-72.1399320848, 41.270759264], [-72.136555519, 41.2714123819], [-72.1327358857, 41.2725545838], [-72.1283855103, 41.2750001717], [-72.1268503647, 41.2760494184], [-72.122301925, 41.2788529135], [-72.1142397914, 41.2816283293], [-72.1085897181, 41.2824476603], [-72.1037945151, 41.2831809092], [-72.0983126666, 41.2840058561], [-72.0955095906, 41.284415815], [-72.0865979511, 41.2857225537], [-72.0742680039, 41.2875643093], [-72.0633390918, 41.289141532], [-72.0485939831, 41.2907489296], [-72.0428773575, 41.2908951938], [-72.0355211478, 41.2916310411], [-72.0284459833, 41.2924496178], [-72.0239323284, 41.2935316376], [-72.0208651386, 41.2942905352], [-72.0166191179, 41.2952934299], [-72.0124976523, 41.2961926404], [-72.007182939, 41.2970124744], [-72.0035716798, 41.2975158077], [-71.9999512006, 41.2978646625], [-71.9956667069, 41.2980132736], [-71.9916542061, 41.2982127629], [-71.9886443485, 41.2984669022], [-71.98725136, 41.2986161839], [-71.9834877178, 41.2991063576], [-71.9781257305, 41.299766181], [-71.9753090758, 41.3000529259], [-71.9694664702, 41.3004533295], [-71.9665850233, 41.3004909642], [-71.9643330574, 41.3005802315], [-71.9606525637, 41.3011041842], [-71.9560776372, 41.3021368347], [-71.9490202423, 41.3036528695], [-71.9457102288, 41.3045923132], [-71.9432996772, 41.3051502127], [-71.9357474148, 41.3065867033], [-71.9285966456, 41.307851281], [-71.926275529, 41.3082541991], [-71.9202591665, 41.3096963894], [-71.9153363071, 41.3112395816], [-71.9144149683, 41.3118913583], [-71.9135323539, 41.313716853], [-71.9126725383, 41.3151500747], [-71.9111083075, 41.3181029353], [-71.909475429, 41.3218146935], [-71.90914887, 41.3258035574], [-71.9100070093, 41.3294557203], [-71.9108772185, 41.3324069045], [-71.9116873294, 41.3353742659], [-71.9106716942, 41.3361037429], [-71.9093409833, 41.3376893476], [-71.9087682478, 41.3383669406], [-71.9087928068, 41.3383469079], [-71.9088030327, 41.3383245282], [-71.9087862689, 41.3382713869], [-71.9087888673, 41.3382167369], [-71.9087789766, 41.3382348418], [-71.9088082295, 41.3382837921], [-71.9088669028, 41.3383559603], [-71.908863131, 41.3384163938], [-71.9088867679, 41.3384294696], [-71.9088713452, 41.3384386897], [-71.908866819, 41.3384350855], [-71.9088615384, 41.3384202495], [-71.9088755362, 41.3384150527], [-71.9088790566, 41.3384024799], [-71.9093030132, 41.3380118832], [-71.9104756415, 41.3363474049], [-71.9116620999, 41.3350182865], [-71.9113056175, 41.3330766186], [-71.9107609615, 41.3315372821], [-71.9088673219, 41.3310809713], [-71.9085794035, 41.3310327753], [-71.9086136017, 41.3310348708], [-71.9086085726, 41.3310304284], [-71.9086156972, 41.3310373016], [-71.9086201396, 41.3310391456], [-71.9086257555, 41.3310210407], [-71.9086493086, 41.3310229685]]}}, {"type": "Feature", "properties": {"date": "2026-06-30", "label": "Stonington \u2192 Nantucket"}, "geometry": {"type": "LineString", "coordinates": [[-71.9084900524, 41.3311227132], [-71.9084514119, 41.3310904428], [-71.9084668346, 41.3311350346], [-71.9085177965, 41.331172334], [-71.9086035434, 41.3310318533], [-71.9086382445, 41.3310180232], [-71.9086135179, 41.3309866749], [-71.9085726142, 41.3309314381], [-71.9085714407, 41.3309186138], [-71.9085618015, 41.3309113216], [-71.9085335545, 41.3309179433], [-71.9084691815, 41.330979215], [-71.9084477238, 41.3309544045], [-71.9084581174, 41.3309595175], [-71.9085047208, 41.3309610263], [-71.9085694291, 41.3309724256], [-71.9086265098, 41.330967648], [-71.9086208101, 41.3309699949], [-71.9085515756, 41.3309653848], [-71.9085151143, 41.3309719227], [-71.9085488934, 41.3309692405], [-71.9085764699, 41.3309576735], [-71.9085609633, 41.3309879322], [-71.9085660763, 41.3310309313], [-71.9085783977, 41.3310500421], [-71.9086126797, 41.331063034], [-71.9086263422, 41.3310930412], [-71.9086332992, 41.3311143313], [-71.9085994363, 41.3311078772], [-71.9085856061, 41.3311091345], [-71.9085827563, 41.3311183546], [-71.9086147752, 41.3311427459], [-71.9086466264, 41.3311698195], [-71.9086187985, 41.3311719988], [-71.9086215645, 41.3311845716], [-71.9086244144, 41.3311565761], [-71.9086132664, 41.3311377168], [-71.9086098298, 41.3311207015], [-71.9085926469, 41.3311215397], [-71.9085473847, 41.3311052788], [-71.9085283577, 41.3310867548], [-71.9085443672, 41.331064878], [-71.9085340574, 41.3310621958], [-71.9085443672, 41.331069991], [-71.9085631426, 41.3310895208], [-71.9086466264, 41.3311147504], [-71.9087249134, 41.3311397284], [-71.9086607918, 41.3312048558], [-71.9086415134, 41.3312457595], [-71.9086266775, 41.3312642835], [-71.9086326286, 41.3312951289], [-71.9086053874, 41.3312861603], [-71.9086351432, 41.3312975597], [-71.9086430222, 41.331293704], [-71.9087607041, 41.3313065283], [-71.9088179525, 41.3313274831], [-71.9088011049, 41.3313827198], [-71.908732038, 41.3313693088], [-71.9087985903, 41.3313761819], [-71.9088168629, 41.3314172532], [-71.9087787252, 41.3314407226], [-71.9087447785, 41.3315145671], [-71.9087490533, 41.3315304928], [-71.9086606242, 41.331470646], [-71.9086425193, 41.3314728253], [-71.9085658249, 41.3315085322], [-71.9085302018, 41.3315953687], [-71.9085239153, 41.3316687103], [-71.9085517433, 41.3316899166], [-71.9085776433, 41.3313512038], [-71.9085755479, 41.3313612621], [-71.9085368235, 41.3313550595], [-71.9084843528, 41.3312912732], [-71.9089006819, 41.3310744334], [-71.9098725636, 41.331285825], [-71.910993224, 41.328631863], [-71.9122360088, 41.3242736086], [-71.9133541547, 41.3190412056], [-71.9121269602, 41.3138834853], [-71.910969587, 41.3093772065], [-71.9082779065, 41.3072998356], [-71.9055892434, 41.3060635049], [-71.9022161979, 41.3044695184], [-71.8982506357, 41.3022679277], [-71.8933137786, 41.2998065818], [-71.8890416902, 41.2987675611], [-71.8784458749, 41.2980921473], [-71.8711560499, 41.2980696838], [-71.865713764, 41.2980613019], [-71.8626279663, 41.2977782451], [-71.8606915791, 41.2976326514], [-71.8588863686, 41.2977669295], [-71.8569372408, 41.2980487291], [-71.8538208492, 41.2985922117], [-71.8463520706, 41.3001262676], [-71.8429698888, 41.3009402342], [-71.8303603213, 41.3020898122], [-71.8182947394, 41.3029259909], [-71.804538779, 41.304162154], [-71.7952234671, 41.3050126657], [-71.7808899935, 41.3063179795], [-71.7735630367, 41.306990711], [-71.7601842619, 41.3082256168], [-71.7443820275, 41.3096572459], [-71.7400624976, 41.3100441545], [-71.7287973873, 41.311071692], [-71.7200320121, 41.311934609], [-71.7135776952, 41.3125966955], [-71.7107135989, 41.3129012939], [-71.7062452901, 41.3133603707], [-71.6953655798, 41.3144928496], [-71.6892879456, 41.315139262], [-71.6835716553, 41.3157345448], [-71.6803468019, 41.316057248], [-71.6708941106, 41.3170645013], [-71.6569332127, 41.3185246289], [-71.6507049557, 41.3191539422], [-71.6399660613, 41.3202844933], [-71.6269125883, 41.3216247596], [-71.6092432849, 41.3234764896], [-71.5993822273, 41.3244964834], [-71.5952871647, 41.324920021], [-71.584199667, 41.3260868657], [-71.5713497065, 41.3274284732], [-71.5568413865, 41.3289516326], [-71.5481030848, 41.3298752345], [-71.5368344542, 41.3310242258], [-71.5218398999, 41.3326036278], [-71.5152259078, 41.33328625], [-71.5070255566, 41.3341339119], [-71.4969179034, 41.3348299451], [-71.4902117103, 41.3371399976], [-71.483280044, 41.3383231871], [-71.4794063475, 41.3391259219], [-71.4755084272, 41.3398926985], [-71.4704076201, 41.3408151269], [-71.4680096414, 41.3411234133], [-71.4642216917, 41.3416157663], [-71.451269472, 41.3433681708], [-71.4388669375, 41.3450514246], [-71.4295522962, 41.346291611], [-71.4212804474, 41.3474151213], [-71.409022836, 41.3490381092], [-71.3948820625, 41.3509411365], [-71.3857534155, 41.352170594], [-71.3738649432, 41.3537581265], [-71.3635315653, 41.3551638555], [-71.3506116159, 41.3569263183], [-71.3425146136, 41.3579990342], [-71.3313004654, 41.3594334293], [-71.319172103, 41.3607161958], [-71.3043109048, 41.3624338992], [-71.2920254655, 41.3638607506], [-71.2802457903, 41.3652322814], [-71.2651812471, 41.366967503], [-71.252516862, 41.3684211764], [-71.2397170253, 41.3699029293], [-71.2281010486, 41.3712566905], [-71.2170332484, 41.3726097811], [-71.2052687444, 41.3740427513], [-71.1967516411, 41.3748541195], [-71.1840416584, 41.3760313578], [-71.1729227286, 41.3770461548], [-71.1612550355, 41.3781332877], [-71.1454377975, 41.3795756456], [-71.1427307781, 41.3798364066], [-71.1377294641, 41.3803420868], [-71.1324088834, 41.3809261378], [-71.1276892852, 41.3814505935], [-71.1233262531, 41.381919561], [-71.1184548587, 41.3824566733], [-71.1153178476, 41.3827952184], [-71.1106036976, 41.3832930196], [-71.1063959822, 41.3837567065], [-71.1024688929, 41.3841811661], [-71.0974733625, 41.3847554103], [-71.0933165252, 41.3852114696], [-71.0885965079, 41.3858408667], [-71.0870256554, 41.3869739324], [-71.0859303083, 41.3876625057], [-71.0842319671, 41.3883494027], [-71.0826306045, 41.3884273544], [-71.0807761084, 41.3884322159], [-71.0773579683, 41.3884717785], [-71.0734076612, 41.3884913921], [-71.0708476603, 41.3885024562], [-71.0674406681, 41.3885274343], [-71.0639366135, 41.3885555975], [-71.0606087465, 41.3885794859], [-71.0573095456, 41.3885884546], [-71.0525705013, 41.3886397518], [-71.0471985396, 41.3886560127], [-71.0420111474, 41.3886881154], [-71.0370494798, 41.388718877], [-71.0346707795, 41.3887294382], [-71.031684475, 41.3887528237], [-71.0268012621, 41.3887840882], [-71.0230256338, 41.3888082281], [-71.0183966439, 41.3888233155], [-71.0146067664, 41.3888640516], [-71.0121056065, 41.3888769597], [-71.0098322667, 41.3888966572], [-71.0056949593, 41.38892591], [-71.0001520906, 41.3889275026], [-70.9971525427, 41.3889316097], [-70.9938705247, 41.3889528997], [-70.9916717, 41.388956923], [-70.9894184768, 41.3889978267], [-70.9883503709, 41.3890029397], [-70.9869785048, 41.3890128303], [-70.9856565949, 41.389024565], [-70.9846719727, 41.3890197035], [-70.9837087244, 41.38905189], [-70.9816786274, 41.3891024329], [-70.9795296751, 41.3892092183], [-70.9779853094, 41.3893010002], [-70.9763456415, 41.3893587515], [-70.9734687209, 41.3895341847], [-70.9712584969, 41.3897235319], [-70.9702171292, 41.3897260465], [-70.9679085016, 41.3899666909], [-70.966000529, 41.3901655935], [-70.9648059402, 41.390275564], [-70.9628710616, 41.3904656656], [-70.9613874648, 41.3905961718], [-70.9604476858, 41.3906903006], [-70.9587480873, 41.3908501435], [-70.9573730361, 41.3910025265], [-70.9550833516, 41.391192209], [-70.9539441671, 41.3912895229], [-70.9525132086, 41.3914450072], [-70.9513720125, 41.3915413991], [-70.9503816068, 41.3916482683], [-70.9477814566, 41.3918853924], [-70.9459055867, 41.3921236899], [-70.9432251379, 41.3925629016], [-70.9407297615, 41.3929565158], [-70.9364523087, 41.3936800417], [-70.9327845555, 41.3942595664], [-70.9319321997, 41.3944082614], [-70.9293996077, 41.3948422763], [-70.9267761558, 41.3952509779], [-70.9218947031, 41.3960553054], [-70.9184041433, 41.3966386858], [-70.9122326318, 41.3976606075], [-70.9061482921, 41.3986335788], [-70.9009873029, 41.399533879], [-70.8962243702, 41.4003190957], [-70.8915577456, 41.4010787476], [-70.8864940703, 41.4019103162], [-70.8819862828, 41.4026412182], [-70.8771665208, 41.4034492336], [-70.8715855144, 41.4043877553], [-70.865801163, 41.4056105912], [-70.8595779352, 41.407097457], [-70.85698843, 41.4078042191], [-70.8557083458, 41.4081368968], [-70.8549603447, 41.4083248191], [-70.850804178, 41.4094489999], [-70.8456413448, 41.4108263981], [-70.8440748509, 41.4112090319], [-70.8406202495, 41.412113104], [-70.8370221499, 41.4126580115], [-70.8345307969, 41.4130928647], [-70.831546085, 41.4136089385], [-70.8277150523, 41.4142017066], [-70.8182164282, 41.4157801028], [-70.8137228061, 41.4169355482], [-70.8108091727, 41.417661421], [-70.8083898202, 41.4182851184], [-70.8066106774, 41.4187244978], [-70.805180138, 41.4191066287], [-70.8039026521, 41.4194841497], [-70.8019903209, 41.4200277999], [-70.8004084043, 41.4204361662], [-70.7987000886, 41.4209826663], [-70.7965176925, 41.4216527995], [-70.7949553058, 41.4221600723], [-70.7930781785, 41.4227800816], [-70.7904179301, 41.423644172], [-70.7886962872, 41.4241878223], [-70.7860298362, 41.4250268508], [-70.7821287308, 41.4262877405], [-70.7781183254, 41.4276494645], [-70.7736635115, 41.4292695187], [-70.7682659011, 41.4311671816], [-70.7614735421, 41.433566669], [-70.75518745, 41.4357804973], [-70.7523910794, 41.4367555641], [-70.7473817188, 41.4386534784], [-70.7450388093, 41.4397223387], [-70.7376739662, 41.4434254635], [-70.7351647597, 41.4447348844], [-70.7326687127, 41.4460679423], [-70.729905786, 41.4475327637], [-70.7272478845, 41.4489268418], [-70.7258719113, 41.4496651199], [-70.7244807668, 41.4503970277], [-70.7230893709, 41.4511455316], [-70.7218599133, 41.4518313389], [-70.7208303642, 41.4524953533], [-70.7196548022, 41.4532223158], [-70.7173021697, 41.4546942618], [-70.7161754742, 41.4554740302], [-70.7142257597, 41.4568547811], [-70.7125839125, 41.457976196], [-70.7098438684, 41.4598866832], [-70.7072099391, 41.461724164], [-70.7051111106, 41.4632096048], [-70.7025734056, 41.4648983069], [-70.7003900036, 41.466322979], [-70.6980816275, 41.4678533468], [-70.6915207766, 41.4721396007], [-70.6875246204, 41.4747541677], [-70.6843374856, 41.4764241781], [-70.6821064744, 41.4773419965], [-70.673152674, 41.479887832], [-70.6582716107, 41.4819921087], [-70.6494232547, 41.4833249152], [-70.6382358447, 41.4849567879], [-70.624525398, 41.4869747311], [-70.6168887299, 41.4882754348], [-70.6101454049, 41.4898448624], [-70.6047882792, 41.4905283228], [-70.602575792, 41.4906825498], [-70.6000285316, 41.4906835556], [-70.5984969903, 41.4906001557], [-70.5957856961, 41.490554139], [-70.5930683669, 41.4903844055], [-70.5891899765, 41.4893651661], [-70.5836922023, 41.4880642109], [-70.5771507137, 41.4846837893], [-70.5752568226, 41.4835981652], [-70.5740115233, 41.4829229191], [-70.5703358073, 41.48109206], [-70.5685367994, 41.4801273867], [-70.5565434694, 41.4752242249], [-70.5539231189, 41.4736166596], [-70.552125955, 41.4722104277], [-70.5448173545, 41.4681350626], [-70.5358410906, 41.4632156398], [-70.5299910251, 41.4600080531], [-70.5245493259, 41.4573680051], [-70.5121372361, 41.4530960843], [-70.4993367288, 41.448760964], [-70.4873909242, 41.4447150193], [-70.4778539948, 41.4414514415], [-70.4703800194, 41.4389230404], [-70.4595247004, 41.4350802731], [-70.4552619159, 41.4334928244], [-70.4461035971, 41.4304116368], [-70.4394526407, 41.4233598579], [-70.4369302746, 41.4170578402], [-70.43568925, 41.4135677833], [-70.4351185262, 41.4118422009], [-70.4345049709, 41.4100675005], [-70.4332480207, 41.4066771884], [-70.4309605993, 41.4018852543], [-70.4283601977, 41.3975187019], [-70.425772788, 41.3931197952], [-70.4221692402, 41.3883686811], [-70.4207109567, 41.3873591647], [-70.4185998067, 41.3867870998], [-70.4159104731, 41.3860179763], [-70.4120419733, 41.3847852498], [-70.4065817501, 41.3830331806], [-70.4020730406, 41.3816064131], [-70.3989954572, 41.3806388061], [-70.3971449845, 41.3800584432], [-70.3960695863, 41.3797048107], [-70.3947988898, 41.3792958576], [-70.3934721183, 41.378883468], [-70.3921011742, 41.3784417417], [-70.3899709135, 41.377768172], [-70.3884633444, 41.3772981986], [-70.3875155188, 41.3770114537], [-70.3862615023, 41.3766017463], [-70.3840221092, 41.3758893684], [-70.3832288459, 41.3756294455], [-70.3824843653, 41.3754014578], [-70.3812551592, 41.3750042394], [-70.3798157349, 41.3746207673], [-70.3781297151, 41.3741868362], [-70.3754647728, 41.3734836783], [-70.3722593654, 41.3729075063], [-70.3674894758, 41.3721273188], [-70.3648599889, 41.3717550784], [-70.3635633923, 41.3715695031], [-70.3624568973, 41.3714277651], [-70.3614187986, 41.3712769747], [-70.3604214359, 41.3711185567], [-70.3586780839, 41.3708828576], [-70.3567341529, 41.3705926761], [-70.3558576573, 41.3704902492], [-70.3547929041, 41.3704076875], [-70.3540454898, 41.3703900855], [-70.3531279229, 41.3703946117], [-70.352334911, 41.3703985512], [-70.3510537371, 41.3703926839], [-70.3485759627, 41.3702573162], [-70.3471383825, 41.3701827172], [-70.3455845453, 41.3700482715], [-70.3440803289, 41.3699051086], [-70.3410537913, 41.3695511408], [-70.3401127551, 41.3694298547], [-70.3377242479, 41.3691125996], [-70.3348964453, 41.3687366713], [-70.3303687926, 41.3681418914], [-70.325269578, 41.3675016817], [-70.3209479526, 41.3669229113], [-70.3185218945, 41.3666049857], [-70.3144987486, 41.3660787698], [-70.3122607805, 41.3657830562], [-70.3103898559, 41.3655497879], [-70.3093997855, 41.3654193655], [-70.308433855, 41.3652898651], [-70.3070199955, 41.3651063852], [-70.3047822788, 41.364814695], [-70.2943499107, 41.363683138], [-70.2837439533, 41.3629625458], [-70.2705867123, 41.3621027302], [-70.2688578609, 41.3620068412], [-70.2670187876, 41.3618804421], [-70.2644241694, 41.3616855629], [-70.2588488627, 41.360482676], [-70.2568071987, 41.359326141], [-70.2504882496, 41.3556098565], [-70.2432427648, 41.3513866346], [-70.2318954282, 41.3448635023], [-70.2247241233, 41.3433128502], [-70.2096959576, 41.338650668], [-70.1973072533, 41.3362266216], [-70.1845616475, 41.3352308515], [-70.1734621637, 41.3359018229], [-70.1619669702, 41.3364132866], [-70.1461607963, 41.3367266022], [-70.1348946802, 41.3353542332], [-70.1292585209, 41.3330241479], [-70.1247454528, 41.3310886826], [-70.1204648148, 41.3292017486], [-70.1146044396, 41.3266187813], [-70.1069069188, 41.3190244418], [-70.1045060065, 41.3153784815], [-70.102286227, 41.3115293439], [-70.1008550171, 41.3084180653], [-70.0999935251, 41.3067056425], [-70.0996663794, 41.3059744053], [-70.0994108152, 41.3053552341], [-70.0990169495, 41.3043788262], [-70.0982999615, 41.3027032837], [-70.0977785233, 41.3013738301], [-70.0966859423, 41.2992113829], [-70.0961221755, 41.297668945], [-70.0955950376, 41.2966195308], [-70.0949228927, 41.2956454698], [-70.0938432198, 41.2944773678], [-70.0919712894, 41.2927699741], [-70.0893460773, 41.2907098699], [-70.0893771742, 41.2894782331], [-70.0900950842, 41.2879493739], [-70.0906752795, 41.286345413], [-70.0910757668, 41.2853666581], [-70.0897927489, 41.2840558961], [-70.0878880452, 41.2834736053], [-70.0876231771, 41.2830655742], [-70.087554194, 41.2830750458], [-70.0875555351, 41.2831291929], [-70.0874902401, 41.283136066], [-70.0874910783, 41.2831114233]]}}, {"type": "Feature", "properties": {"date": "2026-07-05", "label": "Nantucket \u2192 Newport"}, "geometry": {"type": "LineString", "coordinates": [[-70.0898222532, 41.2914538477], [-70.0918088481, 41.2929333374], [-70.0939355884, 41.2949807011], [-70.0948103238, 41.2966898549], [-70.0963139534, 41.2989145797], [-70.0971692428, 41.3010103069], [-70.0975604262, 41.3022524212], [-70.0981055014, 41.3033602573], [-70.098405825, 41.303981021], [-70.099017201, 41.3050211314], [-70.0992560014, 41.3056527078], [-70.0995664671, 41.3065442909], [-70.1011386607, 41.3100558054], [-70.1033163629, 41.312256055], [-70.1069205813, 41.3131887093], [-70.1188590098, 41.3175203931], [-70.1344245393, 41.3246518839], [-70.1488952246, 41.3300832734], [-70.1648807712, 41.3350294344], [-70.1763231587, 41.3331849966], [-70.1914417651, 41.3349760417], [-70.2065403387, 41.3368641492], [-70.2185716387, 41.3393430971], [-70.2271447331, 41.3418564945], [-70.2373211179, 41.3455636427], [-70.2446426265, 41.3491313998], [-70.2538564336, 41.354330359], [-70.2590648644, 41.3579390198], [-70.260655079, 41.3590214588], [-70.2646550909, 41.3617940247], [-70.2675353643, 41.3636417314], [-70.269294139, 41.3645479828], [-70.2773846872, 41.3655083813], [-70.2893314976, 41.3663179055], [-70.2939148899, 41.3666089252], [-70.2980135567, 41.3667746354], [-70.3017874248, 41.3663505949], [-70.305514019, 41.3659173343], [-70.3078042064, 41.3657839783], [-70.3104164265, 41.3657294959], [-70.3149729129, 41.3660946954], [-70.3198059183, 41.3669101708], [-70.3274416644, 41.3681211043], [-70.3355483897, 41.3694433495], [-70.340370331, 41.3702278119], [-70.3442465421, 41.3708137069], [-70.3467497136, 41.3711864501], [-70.3525208216, 41.372027155], [-70.3565936722, 41.3727493398], [-70.3585979529, 41.3730776589], [-70.3606504295, 41.373231886], [-70.3642825596, 41.3734817505], [-70.3728042729, 41.37425825], [-70.3797136433, 41.3752210792], [-70.3818929382, 41.3755436987], [-70.3833049536, 41.3757965807], [-70.3860997315, 41.3762163464], [-70.3880973905, 41.3766420633], [-70.3908708785, 41.3771805167], [-70.3934823442, 41.3776959199], [-70.3956370801, 41.3781281747], [-70.3977916483, 41.3785440847], [-70.4013459105, 41.3792301435], [-70.4058298096, 41.3800971676], [-70.4131438583, 41.3825377263], [-70.4153578542, 41.3850211166], [-70.4183263052, 41.3885678351], [-70.420813635, 41.3926756382], [-70.4218195472, 41.399450982], [-70.4270351864, 41.4104064647], [-70.4300110973, 41.4151426591], [-70.4385139514, 41.42412127], [-70.4510148894, 41.4295862708], [-70.4575422965, 41.4321117382], [-70.4650681559, 41.4350013994], [-70.4763721582, 41.4393949416], [-70.4820267577, 41.4415727276], [-70.4952012654, 41.4466874488], [-70.5056679994, 41.4507255983], [-70.5186105799, 41.4559320174], [-70.5277694855, 41.4598048758], [-70.5322502833, 41.4619091526], [-70.5394972768, 41.4656223357], [-70.5484497361, 41.470228862], [-70.5543117039, 41.4730767813], [-70.5569389276, 41.4744376671], [-70.5655386765, 41.4789630566], [-70.5694236048, 41.4808433689], [-70.5734282266, 41.4827850368], [-70.5749170203, 41.483466737], [-70.5771740992, 41.4846055862], [-70.579969883, 41.4859594312], [-70.5858037714, 41.4888051711], [-70.5883247964, 41.490033539], [-70.5911603943, 41.4908462483], [-70.5946790334, 41.4907641057], [-70.5975463986, 41.4907615911], [-70.5999178067, 41.4905387163], [-70.601789318, 41.4902479481], [-70.6033658702, 41.4900390711], [-70.6056716479, 41.4895771444], [-70.6091747805, 41.4887471683], [-70.6142423954, 41.4877503086], [-70.6267119013, 41.4857049566], [-70.636815615, 41.4840072859], [-70.6469124556, 41.4822066855], [-70.6496200617, 41.4817385562], [-70.6519910507, 41.4813936409], [-70.6542097405, 41.4811231568], [-70.6560548488, 41.4808819257], [-70.661605848, 41.4801263809], [-70.6768522784, 41.4769527409], [-70.6811429746, 41.4757820405], [-70.6854041666, 41.4743044786], [-70.6890781224, 41.4729176089], [-70.6939107087, 41.4711206127], [-70.7029438857, 41.4682318736], [-70.7119571976, 41.4655240998], [-70.7231614552, 41.4612162206], [-70.7322431635, 41.4574723598], [-70.7352469862, 41.4561506175], [-70.7377748005, 41.4550255146], [-70.7397510856, 41.4541785233], [-70.7421520818, 41.4530943241], [-70.7458335813, 41.4513665624], [-70.7472928707, 41.4504681062], [-70.7495926972, 41.4496729989], [-70.7528978493, 41.449023569], [-70.7555921283, 41.448229216], [-70.7589181513, 41.4472268242], [-70.7614885457, 41.4466036297], [-70.7633537706, 41.446188055], [-70.7685900293, 41.445074603], [-70.7747773826, 41.4436096139], [-70.7810252532, 41.4430098049], [-70.7840003259, 41.4427830745], [-70.7890862133, 41.4420043956], [-70.7910614088, 41.441770792], [-70.7928309124, 41.4414314926], [-70.7947366219, 41.4410024229], [-70.7975923363, 41.4403668232], [-70.7993594091, 41.4400812518], [-70.80085692, 41.4399419446], [-70.8025265951, 41.4398524258], [-70.8045109268, 41.4397079218], [-70.8058345132, 41.4395854622], [-70.8081618324, 41.4393491764], [-70.8096526377, 41.4391613379], [-70.8109570295, 41.438938966], [-70.8126042411, 41.4386163466], [-70.8147350885, 41.4381366502], [-70.8173369151, 41.4375349972], [-70.8261818346, 41.4370004833], [-70.8317708876, 41.4370684605], [-70.8339410461, 41.4374073409], [-70.8374614455, 41.4385894407], [-70.8383684512, 41.4389491919], [-70.8407833613, 41.440088544], [-70.8428435493, 41.4413079433], [-70.8441226278, 41.4422405139], [-70.8450033143, 41.4431332704], [-70.8457766287, 41.4439633302], [-70.8462942112, 41.4449487906], [-70.8466739953, 41.4453864098], [-70.8469662722, 41.4462323114], [-70.8471422922, 41.4472060371], [-70.8474178053, 41.4476321731], [-70.8480533212, 41.4487324655], [-70.8487669565, 41.4494915307], [-70.8495401032, 41.4500800241], [-70.8504414931, 41.4509828389], [-70.851542959, 41.4516328555], [-70.8523856755, 41.4523174893], [-70.8547873423, 41.4527938329], [-70.8572448324, 41.453177724], [-70.8588646352, 41.4535542391], [-70.8635765221, 41.4536140859], [-70.8685304783, 41.4537013415], [-70.8755055629, 41.4521643519], [-70.8891766146, 41.4533618744], [-70.8947805874, 41.4549728762], [-70.8980419021, 41.4555746131], [-70.9030393604, 41.4564049244], [-70.9054603893, 41.4568355028], [-70.9110376239, 41.4577586856], [-70.9161119442, 41.458616741], [-70.9183867928, 41.4590101875], [-70.9208659083, 41.4594248403], [-70.9226678498, 41.4597327076], [-70.9248617291, 41.4599702507], [-70.926692253, 41.4601536468], [-70.9305952862, 41.4603546448], [-70.932285497, 41.4603862446], [-70.9341611154, 41.4604254719], [-70.9356860351, 41.4604403917], [-70.9377328958, 41.4604562335], [-70.94096018, 41.4604931977], [-70.9459016472, 41.4605462551], [-70.955242021, 41.4604223706], [-70.9586273041, 41.4603253081], [-70.9637210704, 41.4601670578], [-70.966929663, 41.4600562491], [-70.9717039112, 41.4599276707], [-70.9769291058, 41.4594787359], [-70.9795796312, 41.459105406], [-70.9829241782, 41.4586486761], [-70.9876244143, 41.4580017608], [-70.9904515464, 41.4576048777], [-70.992955137, 41.4572655782], [-70.9959664196, 41.4568600617], [-71.0016698018, 41.4560840651], [-71.0071825795, 41.4553291071], [-71.0118749365, 41.4546828624], [-71.0155507363, 41.4542097878], [-71.0183788743, 41.4538008347], [-71.0222346336, 41.4532922208], [-71.0344533529, 41.4515926223], [-71.040975228, 41.4507402666], [-71.0501731094, 41.4494722523], [-71.0608347226, 41.4480011445], [-71.075061243, 41.4460780844], [-71.0841555241, 41.4451131597], [-71.0957925394, 41.4441286214], [-71.1081260908, 41.4431077894], [-71.1216253135, 41.4420527592], [-71.1320119165, 41.4410445001], [-71.145723369, 41.4405226428], [-71.1558841635, 41.439929707], [-71.161441952, 41.4395724703], [-71.1728047114, 41.4389361162], [-71.1848314852, 41.4381947368], [-71.1910755001, 41.4378140308], [-71.1940318812, 41.4372283872], [-71.1969029345, 41.4370761719], [-71.2106411252, 41.4365998283], [-71.2244618777, 41.43547724], [-71.2376016006, 41.4343870897], [-71.2524551712, 41.433158135], [-71.2686455715, 41.4318032842], [-71.2783412542, 41.4390137326], [-71.2871532328, 41.4449604414], [-71.295548128, 41.450251434], [-71.300241407, 41.4526627399], [-71.3016509917, 41.4533319511], [-71.3029808644, 41.451711813], [-71.3030490093, 41.4510314539], [-71.3038641494, 41.4490636345], [-71.3062047958, 41.4466902148], [-71.3067022618, 41.4465019573], [-71.3075060025, 41.4462551102], [-71.3081535045, 41.4460464008], [-71.309237536, 41.4454568177], [-71.3097469881, 41.4454959612], [-71.3107082248, 41.4454440773], [-71.3113774359, 41.4454547223], [-71.3123608008, 41.4454236254], [-71.3133243006, 41.4453040157], [-71.3152664714, 41.4448412508], [-71.3163095154, 41.4447237365], [-71.3173802197, 41.4446862694], [-71.3181973714, 41.4445990138], [-71.319009494, 41.4444378298], [-71.3217008393, 41.4437234402], [-71.3263526279, 41.4429895207], [-71.3293292932, 41.4424619637], [-71.3329774328, 41.4414096158], [-71.3404887076, 41.4381425176], [-71.3434600923, 41.4371476695], [-71.3456524629, 41.4370783512], [-71.3478128146, 41.4375431277], [-71.3504728954, 41.43834427], [-71.3530095108, 41.4392951969], [-71.3553559408, 41.4402068965], [-71.357474383, 41.4406461921], [-71.3592481613, 41.440689275], [-71.3606376294, 41.4408862498], [-71.3628383819, 41.4416632522], [-71.3651695568, 41.4429384749], [-71.3684522454, 41.4471709169], [-71.3697086088, 41.4535439294], [-71.3700813521, 41.4552715234], [-71.370177241, 41.456944216], [-71.3694525417, 41.4600707497], [-71.3687943108, 41.4625187684], [-71.3676196709, 41.4644717518], [-71.3641837612, 41.4674148057], [-71.3605590072, 41.4701336436], [-71.3572303858, 41.4730749372], [-71.3550674357, 41.4742447995], [-71.3525500149, 41.475425642], [-71.3500992302, 41.4768414292], [-71.3472483773, 41.4786188118], [-71.345622791, 41.4795308467], [-71.344810836, 41.4799268078], [-71.3435537182, 41.4804599807], [-71.3423510827, 41.4811472967], [-71.3413402252, 41.4818486944], [-71.3400961831, 41.4824802708], [-71.3389155082, 41.4828922413], [-71.3363239914, 41.4831253421], [-71.3336608931, 41.4820515364], [-71.3318245858, 41.4791182056], [-71.3294245955, 41.4779686276], [-71.3299556728, 41.4763617329], [-71.329463236, 41.4752481133], [-71.3275434449, 41.4783409517], [-71.3241729978, 41.4784204122], [-71.3223084435, 41.4789060596], [-71.3199966308, 41.4804065879], [-71.3191463705, 41.4817456808], [-71.3187156245, 41.4825637545], [-71.318316143, 41.4851373341], [-71.3182344195, 41.485900674], [-71.3179358561, 41.4862472657], [-71.3178913482, 41.4862158336], [-71.3179159071, 41.4861885924], [-71.3178857323, 41.4862204436], [-71.3178484328, 41.4862238802], [-71.3178363629, 41.48624341], [-71.3178555574, 41.4862419013], [-71.3178405538, 41.4862508699], [-71.3183412887, 41.4863060229], [-71.3183348347, 41.4844863117], [-71.3177424856, 41.4845994674], [-71.317782132, 41.4846308157], [-71.3178162463, 41.484548673], [-71.3178565633, 41.4845855534], [-71.31783586, 41.4846316539], [-71.3178371172, 41.4846836217], [-71.317834435, 41.4847230166], [-71.3178442419, 41.4847646747], [-71.3178338483, 41.4848036505], [-71.3178927731, 41.4848287962], [-71.3180046715, 41.4848645031], [-71.3179795258, 41.4848706219], [-71.3180911727, 41.4849457238], [-71.3181149773, 41.4848839492], [-71.3180983812, 41.4848168101], [-71.3180751633, 41.484797867], [-71.3181007281, 41.4847704582], [-71.31803778, 41.4847405348], [-71.3179097045, 41.4846934285], [-71.3178513665, 41.4846934285], [-71.3177732471, 41.4847148024], [-71.3177925255, 41.484754784], [-71.3178227842, 41.4847597294], [-71.3178651128, 41.4847559575], [-71.3179378677, 41.4847443905], [-71.3178712316, 41.4847191609], [-71.3178277295, 41.4846644271], [-71.3178026676, 41.4846250322], [-71.3178193476, 41.484568622], [-71.3177693076, 41.4845328312], [-71.3176393043, 41.4845576417], [-71.317586666, 41.4845599886], [-71.3175964728, 41.4845385309], [-71.3176731672, 41.4845575579], [-71.3177398033, 41.4845789317], [-71.317777941, 41.4845552109], [-71.3177999016, 41.4845573064], [-71.3177925255, 41.4845762495], [-71.3177847303, 41.4845402073], [-71.3177681342, 41.4844722301], [-71.31780711, 41.4844526164], [-71.3178030029, 41.4844353497], [-71.3178419787, 41.4844399597], [-71.3178555574, 41.4844636805], [-71.3178366143, 41.4845025726], [-71.317816833, 41.4845001418], [-71.3177892566, 41.4845033269], [-71.3177849818, 41.484497292], [-71.3178081159, 41.4845055901], [-71.3178365305, 41.4845365193], [-71.3178226165, 41.4845568035], [-71.3178418949, 41.4845868107], [-71.3178056851, 41.4846237749], [-71.3177987281, 41.4846529439], [-71.3178240415, 41.4846899081], [-71.3177848142, 41.4847738948], [-71.3177500293, 41.4848315623], [-71.3176752627, 41.4848874696], [-71.3175910246, 41.4849193208], [-71.3174562436, 41.4849090111], [-71.3173349574, 41.4849029761], [-71.317414334, 41.484840028], [-71.317388434, 41.4848324005], [-71.3174114004, 41.4848231804]]}}, {"type": "Feature", "properties": {"date": "2026-07-06", "label": "Newport \u2192 Branford"}, "geometry": {"type": "LineString", "coordinates": [[-71.3178133126, 41.4846523572], [-71.317770062, 41.4845992997], [-71.3177784439, 41.4846062567], [-71.3177635241, 41.4846264571], [-71.3177619316, 41.484670043], [-71.3178062718, 41.4845294785], [-71.3185228407, 41.4831737895], [-71.319645429, 41.4819735847], [-71.3205452263, 41.4815995842], [-71.3236211333, 41.4825034887], [-71.3258240651, 41.4836244844], [-71.3263158314, 41.4838540647], [-71.3259549066, 41.4843764249], [-71.3256307784, 41.4836515579], [-71.3262069505, 41.4823307376], [-71.3287117146, 41.4818674698], [-71.3305279054, 41.4824412949], [-71.3337717857, 41.4833030384], [-71.3378615677, 41.4833959099], [-71.3397408742, 41.4828991145], [-71.3420634158, 41.4822372794], [-71.344034588, 41.481655743], [-71.3455799595, 41.4810906351], [-71.3478669617, 41.4800071064], [-71.3504246995, 41.4785510022], [-71.3517866749, 41.4778302424], [-71.3536385726, 41.4767429419], [-71.3551782444, 41.4758139756], [-71.3568362687, 41.4747691713], [-71.3618323859, 41.471025059], [-71.364652561, 41.4677515067], [-71.3659697771, 41.4661814924], [-71.3689445145, 41.4625653718], [-71.3731798064, 41.4577002637], [-71.3748155348, 41.4557944704], [-71.3772101607, 41.4533828292], [-71.3809731323, 41.4487803262], [-71.3840575051, 41.4456801116], [-71.3852634933, 41.4444908034], [-71.3879500609, 41.4414045028], [-71.3918399345, 41.4373374358], [-71.396051757, 41.4324177615], [-71.3994654547, 41.4276387356], [-71.4022355899, 41.4240322541], [-71.4058020897, 41.4187690057], [-71.4082586579, 41.4147891104], [-71.4113652427, 41.4127297606], [-71.4166029263, 41.4089804515], [-71.4205130003, 41.4044214506], [-71.4230900165, 41.3994998485], [-71.4255393762, 41.3957952149], [-71.4282433782, 41.39285082], [-71.4306595456, 41.3909197133], [-71.4345073421, 41.3871370442], [-71.43708352, 41.3844825793], [-71.4393637329, 41.3817687705], [-71.4418770466, 41.3788679615], [-71.4451144729, 41.3762868382], [-71.4496145491, 41.3725416362], [-71.4515412133, 41.37084933], [-71.4544460457, 41.3688361645], [-71.4581246115, 41.3657619338], [-71.4594307635, 41.3645860367], [-71.4631273504, 41.3617210183], [-71.4657867607, 41.3597047515], [-71.4699469507, 41.3573383726], [-71.4718731958, 41.3565945625], [-71.4738612156, 41.3558172248], [-71.4762077294, 41.354920445], [-71.4789414871, 41.3543323707], [-71.4812726621, 41.3536815159], [-71.486784853, 41.3523911219], [-71.49134662, 41.3513972796], [-71.4939488657, 41.3505314291], [-71.5007067751, 41.3495887164], [-71.5034199972, 41.3489806093], [-71.5091149136, 41.3475747127], [-71.5134170931, 41.3472247683], [-71.5178741701, 41.3470892329], [-71.5227552038, 41.3466547988], [-71.5280057956, 41.3462014217], [-71.5353683755, 41.3451701123], [-71.539463941, 41.3446677011], [-71.5411277488, 41.3447545376], [-71.5431626234, 41.344210133], [-71.54449258, 41.3439429179], [-71.54691034, 41.3440157566], [-71.5504941903, 41.3437710889], [-71.5532147884, 41.3436032832], [-71.5568973776, 41.3435405027], [-71.5629664622, 41.3431569468], [-71.5649369638, 41.3430452161], [-71.5696611721, 41.3427477423], [-71.5766540263, 41.3424016535], [-71.5805131383, 41.3419922814], [-71.5862223879, 41.3415923808], [-71.5936340857, 41.3407437131], [-71.6017287411, 41.3396252319], [-71.6075545829, 41.339052245], [-71.6143113188, 41.3380376156], [-71.6194751579, 41.3371354714], [-71.6245795693, 41.3357472606], [-71.6275222879, 41.3347057253], [-71.6343122162, 41.3324399292], [-71.6423636209, 41.3310046121], [-71.6488109808, 41.3296313211], [-71.6535344347, 41.3285274245], [-71.6578784399, 41.3270307519], [-71.6633678321, 41.3250034209], [-71.6683521308, 41.3235441316], [-71.6723527294, 41.3225164264], [-71.6776012257, 41.3218229078], [-71.6808986664, 41.3217411842], [-71.6843315586, 41.3212213386], [-71.6888948344, 41.3205779437], [-71.6932535078, 41.3200514764], [-71.7002249882, 41.318839537], [-71.7030173354, 41.3179997541], [-71.7049761023, 41.3177846745], [-71.7080374248, 41.3177155238], [-71.7118245363, 41.3175757974], [-71.7155409884, 41.3167908322], [-71.718114987, 41.316189263], [-71.7276291177, 41.3153297827], [-71.7355573084, 41.3142000698], [-71.7447014619, 41.3121251296], [-71.7567851488, 41.3094502967], [-71.7654536292, 41.3073027693], [-71.7734512221, 41.305873571], [-71.7818717659, 41.3048258331], [-71.7884738557, 41.3036986347], [-71.7955074459, 41.3030986581], [-71.8002638407, 41.3022881281], [-71.8061791174, 41.3013158273], [-71.8127697241, 41.3004125096], [-71.8203887902, 41.299271062], [-71.8299745023, 41.2979253475], [-71.8369345833, 41.29707844], [-71.8408000655, 41.2972190883], [-71.848148983, 41.2975193281], [-71.8553538155, 41.2979898881], [-71.8579206057, 41.2981128506], [-71.860397961, 41.2984140962], [-71.8620123994, 41.2987301778], [-71.8655536696, 41.2992522866], [-71.87108187, 41.2997753173], [-71.8791064527, 41.3004964124], [-71.88393577, 41.3011088781], [-71.8870904669, 41.3015142269], [-71.8893373199, 41.3018306438], [-71.8953420315, 41.3030370511], [-71.8987905979, 41.3031988218], [-71.902426919, 41.3031041902], [-71.905409703, 41.303107962], [-71.9084786531, 41.3029718399], [-71.9103984442, 41.3029179443], [-71.9131541625, 41.3027295191], [-71.9152381551, 41.3024425227], [-71.9172283541, 41.3021670934], [-71.9213907234, 41.302171452], [-71.9277240057, 41.3019343279], [-71.9309494458, 41.3017140515], [-71.9380375184, 41.3011543918], [-71.9400485046, 41.3010529708], [-71.9449742977, 41.3009166811], [-71.9475192949, 41.3007949758], [-71.9506439008, 41.3006025273], [-71.954928562, 41.3002446201], [-71.9600605499, 41.3000018802], [-71.9617334101, 41.3000023831], [-71.9635760877, 41.3000059035], [-71.9659593143, 41.3000183925], [-71.9691772945, 41.3001708593], [-71.9761752617, 41.3004967477], [-71.9822971523, 41.3006594405], [-71.9872877374, 41.3007562514], [-71.9936830457, 41.300579058], [-71.9955765177, 41.3004957419], [-71.99799411, 41.3004240766], [-72.0047556236, 41.3002173789], [-72.0102769509, 41.3003133517], [-72.0179563668, 41.3002471346], [-72.0265173912, 41.300600851], [-72.041431563, 41.2992904242], [-72.0594286826, 41.2953220122], [-72.0727209561, 41.2919079792], [-72.0799983758, 41.2903360371], [-72.0879140776, 41.2880673911], [-72.0952722151, 41.2852698471], [-72.0983242337, 41.2845421303], [-72.1013250388, 41.2840760127], [-72.1038619056, 41.2835340388], [-72.1070875134, 41.2826574594], [-72.1138904337, 41.2811515667], [-72.1201302577, 41.2801072653], [-72.1258065663, 41.276774453], [-72.1285935491, 41.2748025265], [-72.1332543064, 41.2722875364], [-72.1361085959, 41.2716453988], [-72.1400839649, 41.2710989825], [-72.1414280031, 41.2708656304], [-72.1423112042, 41.2707121577], [-72.1437604353, 41.2702412624], [-72.145614177, 41.2695951015], [-72.1470846143, 41.2690314185], [-72.1481394768, 41.2686318532], [-72.149178246, 41.2682819925], [-72.150523793, 41.2677804194], [-72.1520575136, 41.2672040798], [-72.153501967, 41.2666628603], [-72.1562915482, 41.265661139], [-72.1621014643, 41.2635756377], [-72.1657826286, 41.2626396306], [-72.1694292594, 41.2618095707], [-72.1769424621, 41.2609848753], [-72.1872065216, 41.2607697118], [-72.1944541018, 41.260540802], [-72.2040581703, 41.2598503847], [-72.2107246332, 41.2592226639], [-72.2139486484, 41.2588472385], [-72.2200327367, 41.2580513768], [-72.230174588, 41.2574959919], [-72.241134597, 41.255167583], [-72.2479816899, 41.2546481565], [-72.2521071788, 41.2542139739], [-72.2534769494, 41.2539055198], [-72.2544636671, 41.2535906956], [-72.2566886432, 41.2531315349], [-72.2600403987, 41.2523286324], [-72.2651526891, 41.2511974107], [-72.2696623206, 41.250104662], [-72.2753208596, 41.2492819782], [-72.2844608221, 41.2491741031], [-72.2890945897, 41.2489301898], [-72.2924532183, 41.2486212328], [-72.2983634658, 41.2480610702], [-72.2996831127, 41.2479438074], [-72.3017242737, 41.2477057613], [-72.3037205078, 41.2473398913], [-72.3055955395, 41.2470197864], [-72.308010282, 41.2467871886], [-72.3114990816, 41.2467431836], [-72.3136995826, 41.2467860151], [-72.3163114674, 41.2468834128], [-72.319014715, 41.2470280845], [-72.3212287948, 41.247044513], [-72.3241948988, 41.2470155954], [-72.3260645662, 41.2469691597], [-72.3315843008, 41.2468278408], [-72.3357164953, 41.246828679], [-72.338206172, 41.2467119191], [-72.341874009, 41.2463650759], [-72.3443496879, 41.2461255211], [-72.3485681321, 41.2457868923], [-72.3529994767, 41.2456010655], [-72.3602872901, 41.2451069523], [-72.364968583, 41.245097816], [-72.372940192, 41.2456687074], [-72.3829999007, 41.2471471913], [-72.3912110645, 41.2485758867], [-72.4026935175, 41.2481836975], [-72.4101032875, 41.2477609143], [-72.4188559223, 41.2474390492], [-72.4209353887, 41.2473995704], [-72.4248146173, 41.2473574094], [-72.4286044948, 41.2473077886], [-72.4413049221, 41.2465318758], [-72.4505845271, 41.2456409633], [-72.4550089147, 41.2453056034], [-72.4578978214, 41.2450747658], [-72.4604593311, 41.2447797228], [-72.4637214001, 41.2443394214], [-72.4668467604, 41.2438650057], [-72.469346663, 41.2433751673], [-72.471471224, 41.2429713272], [-72.4738624971, 41.242578635], [-72.4778278917, 41.2417585496], [-72.4802274629, 41.2410800345], [-72.4840723258, 41.2399739586], [-72.4870553613, 41.2389278971], [-72.4895396736, 41.2383699138], [-72.4912106898, 41.23815584], [-72.4944630358, 41.237912178], [-72.4971437361, 41.2377587054], [-72.49884082, 41.2376325577], [-72.5019126199, 41.2373101898], [-72.5050776266, 41.2368519511], [-72.5107606407, 41.2357054744], [-72.5128717907, 41.2354251835], [-72.5148036517, 41.2353521772], [-72.519560298, 41.235606065], [-72.5230133068, 41.2357815821], [-72.5280641578, 41.2359793112], [-72.5310435053, 41.2361632939], [-72.5346315466, 41.2364908587], [-72.5377270672, 41.2367189303], [-72.5491821952, 41.2361900322], [-72.5617883261, 41.235002568], [-72.5744385459, 41.2339643016], [-72.5874227006, 41.233338844], [-72.5974243227, 41.2324851472], [-72.6081863511, 41.2319561653], [-72.6212650537, 41.2315483857], [-72.6351530291, 41.2314451206], [-72.6465451252, 41.2314150296], [-72.6591727138, 41.2309829425], [-72.6677081734, 41.231305562], [-72.6805625763, 41.2316726055], [-72.6932880655, 41.2308365107], [-72.7047494799, 41.2306776736], [-72.7169017307, 41.2303338479], [-72.7223518118, 41.2298814766], [-72.7244316973, 41.2296244036], [-72.7345147915, 41.228440376], [-72.7377070393, 41.2281228695], [-72.7409654204, 41.2280262262], [-72.7448048349, 41.2319300976], [-72.7487340197, 41.2355869543], [-72.7516885567, 41.2401001062], [-72.7527243085, 41.2420216575], [-72.7524917107, 41.2428175192], [-72.7523389924, 41.2453508656], [-72.751987204, 41.2463611364], [-72.7498068195, 41.2492647953], [-72.7497507446, 41.2506840192], [-72.7499836776, 41.2512772903], [-72.7509796992, 41.2517244648], [-72.7510920167, 41.2532288488], [-72.7511702199, 41.2534997519], [-72.7515779156, 41.2541214377], [-72.753807418, 41.2536398135], [-72.7583467215, 41.2515733391], [-72.7659191843, 41.2465230748], [-72.7753415331, 41.242801426], [-72.7855908405, 41.2391544599], [-72.7976133395, 41.2351671886], [-72.8016662411, 41.2336770538], [-72.8148186207, 41.2328687869], [-72.8288329951, 41.2352212518], [-72.8323481139, 41.2387553137], [-72.8326302487, 41.2410745025], [-72.8325844835, 41.2421942409], [-72.8321171086, 41.2464952469], [-72.8312268667, 41.2509358115], [-72.8288590629, 41.2551312894], [-72.8240928613, 41.2578792963], [-72.8199118003, 41.2601360399], [-72.8169053793, 41.2617337983], [-72.8148473706, 41.2621538993], [-72.8146901261, 41.2622007541], [-72.8147215582, 41.2621748541], [-72.8147490509, 41.2621598504], [-72.8147913795, 41.2621345371], [-72.814802276, 41.2621161807], [-72.8147975821, 41.2621135823], [-72.8148223925, 41.2621148396], [-72.8148014378, 41.2621274125], [-72.8147658147, 41.2621309329], [-72.8124493081, 41.262122551], [-72.810415104, 41.2620676495], [-72.8093650192, 41.2621717528], [-72.8093477525, 41.2621518876], [-72.8093488421, 41.2621834874], [-72.8093495127, 41.2622099742], [-72.8093355149, 41.2619992532], [-72.8093798552, 41.2620923761], [-72.8092871513, 41.2620198727], [-72.8094210941, 41.2621368002], [-72.8093918413, 41.2621545698], [-72.8093936015, 41.2621366326], [-72.8093798552, 41.262120707], [-72.8093636781, 41.2620972376], [-72.8093672823, 41.262140153], [-72.8093580622, 41.2621311005], [-72.8093646839, 41.2621343695], [-72.8093988821, 41.2621936295], [-72.809448, 41.2622202002], [-72.8094751574, 41.2622400653], [-72.8094920889, 41.2622536439], [-72.8095012251, 41.2622605171], [-72.8095064219, 41.2622483633], [-72.8095132113, 41.2622563262], [-72.8095361777, 41.2622321025], [-72.8095611557, 41.2622143328], [-72.8095572162, 41.2622150872], [-72.8095714655, 41.2622047774], [-72.8095884807, 41.2621922046], [-72.809593929, 41.2621801347], [-72.8095900733, 41.2621990778], [-72.8095956892, 41.2622041907], [-72.8096210025, 41.262212405], [-72.8096357547, 41.2621969823], [-72.8096723836, 41.2621171027], [-72.8096906561, 41.2620626204], [-72.8097121138, 41.2620034441], [-72.80971203, 41.2619720958], [-72.8097371757, 41.2619589362], [-72.8097618185, 41.2619409151], [-72.8097865451, 41.2619324494], [-72.8097994532, 41.2619250733], [-72.8098128643, 41.2619345449], [-72.8098274488, 41.2619480398], [-72.8098680172, 41.2619767897], [-72.8098988626, 41.2619779631], [-72.8099212423, 41.2619871832], [-72.8099890519, 41.2619884405], [-72.8100458812, 41.2620019354], [-72.8100779001, 41.2620218843], [-72.8101183008, 41.2620487064], [-72.8101408482, 41.2620718405], [-72.8101768065, 41.2620913703], [-72.8102045506, 41.2621198688], [-72.8102322947, 41.2621376384], [-72.8102479689, 41.2621453498], [-72.8102730308, 41.2621511333], [-72.8102984279, 41.2621801347], [-72.810323406, 41.2622022629], [-72.810354, 41.2622194458], [-72.8103698418, 41.262237886], [-72.8103948198, 41.2622537278], [-72.8104006033, 41.2622510456], [-72.8104171995, 41.262251297]]}}, {"type": "Feature", "properties": {"date": "2026-07-07", "label": "Branford \u2192 Jersey City"}, "geometry": {"type": "LineString", "coordinates": [[-72.8093548771, 41.2620592676], [-72.8093463276, 41.2620559987], [-72.8093681205, 41.2620692421], [-72.8093819506, 41.2620860897], [-72.8094037436, 41.2621135823], [-72.8094187472, 41.2621171027], [-72.8094254527, 41.2621433381], [-72.8094121255, 41.2621594314], [-72.8094110359, 41.2621760275], [-72.8094085213, 41.2621911988], [-72.8094501793, 41.2621917855], [-72.8094970342, 41.2621877622], [-72.8095066734, 41.2621672265], [-72.8094898257, 41.2621704955], [-72.8094588127, 41.2621830683], [-72.8094440605, 41.2622025982], [-72.8094341699, 41.2622152548], [-72.8094390314, 41.2622242235], [-72.8094614111, 41.2622194458], [-72.8094567172, 41.2622186914], [-72.8094371036, 41.2622168474], [-72.8093796037, 41.2622233853], [-72.809359571, 41.2622274086], [-72.8093459085, 41.2622284982], [-72.8093375266, 41.2622268219], [-72.8093785979, 41.2622456811], [-72.8093918413, 41.2622295041], [-72.8093888238, 41.2622238044], [-72.8093697131, 41.2622087169], [-72.8093558829, 41.2621870916], [-72.8093547095, 41.2621710822], [-72.8093816154, 41.2621363811], [-72.8093980439, 41.2621315196], [-72.809402151, 41.2621321063], [-72.8094233572, 41.2621395662], [-72.8094296437, 41.2621386442], [-72.8094156459, 41.262129005], [-72.8094277158, 41.2621140014], [-72.8094216809, 41.2621057872], [-72.8094138019, 41.2621112354], [-72.8094237763, 41.2621260714], [-72.8094289731, 41.2621377222], [-72.8094407916, 41.2621583417], [-72.8094401211, 41.2621515524], [-72.809430398, 41.2621282507], [-72.8094251174, 41.2621112354], [-72.8094329126, 41.2620918732], [-72.8094212618, 41.2620796356], [-72.8094089404, 41.2620739359], [-72.809398463, 41.262070667], [-72.8093775921, 41.2620719243], [-72.8093439806, 41.2620775402], [-72.8093320783, 41.2620856706], [-72.8093283065, 41.2621057034], [-72.8093408793, 41.2621200364], [-72.8093045019, 41.2621362135], [-72.8092934377, 41.262139231], [-72.8092730697, 41.2621238921], [-72.809270639, 41.2621342856], [-72.809268292, 41.2621481996], [-72.8092854749, 41.2621576712], [-72.8092817031, 41.2621457689], [-72.8092952818, 41.2621441763], [-72.8092980478, 41.262144763], [-72.8092916775, 41.2621513847], [-72.8092989698, 41.2621578388], [-72.8093258757, 41.2621713337], [-72.8093249537, 41.2621671427], [-72.8093143087, 41.2621458527], [-72.8093131352, 41.2621245626], [-72.8093107883, 41.262111403], [-72.8093209304, 41.262095226], [-72.8093114588, 41.2620967347], [-72.8093091957, 41.262085503], [-72.8093070164, 41.262078546], [-72.8092836309, 41.262081312], [-72.8092645202, 41.2620901968], [-72.8092604131, 41.2620922085], [-72.8092792723, 41.262102602], [-72.8093179129, 41.2621298432], [-72.8093848005, 41.2621523906], [-72.8094033245, 41.2621553242], [-72.8094547056, 41.2621643767], [-72.8094686195, 41.2621899415], [-72.8094737325, 41.262182733], [-72.8094707988, 41.2621427514], [-72.8094491735, 41.26211836], [-72.8094282188, 41.2620721757], [-72.8094025701, 41.2620441802], [-72.8093867283, 41.262039654], [-72.8093868122, 41.2620333675], [-72.8093765024, 41.2620344572], [-72.8093770891, 41.2620373908], [-72.8093698807, 41.2620369717], [-72.809349848, 41.2620072998], [-72.8093816992, 41.2619885243], [-72.8093682043, 41.2619908713], [-72.8093786817, 41.2619879376], [-72.8093656059, 41.2619909551], [-72.8093652707, 41.2619875185], [-72.8093541227, 41.2619981635], [-72.8093533684, 41.2619892787], [-72.8093399573, 41.2619900331], [-72.8093490098, 41.2619610317], [-72.8093413822, 41.2619570922], [-72.8093339223, 41.2619610317], [-72.8093299828, 41.2619733531], [-72.8093130514, 41.2619839143], [-72.8093122132, 41.2619922124], [-72.8093078546, 41.2619873509], [-72.8093160689, 41.2619883567], [-72.8093106207, 41.2619878538], [-72.8093195893, 41.2619819865], [-72.8093324136, 41.2619781308], [-72.8093238641, 41.2619638816], [-72.8093206789, 41.2619637977], [-72.8093219362, 41.2619606964], [-72.8093160689, 41.2619672343], [-72.8093134705, 41.2619577628], [-72.8093212657, 41.2619716767], [-72.809328977, 41.2619589362], [-72.809339622, 41.2619494647], [-72.8093468305, 41.2619405799], [-72.8093701322, 41.261931695], [-72.8093907516, 41.2619169429], [-72.8094006423, 41.2619150151], [-72.8094042465, 41.2619135901], [-72.8093934339, 41.2618944794], [-72.8093876503, 41.2618897017], [-72.8093891591, 41.2618914619], [-72.8093888238, 41.2619011849], [-72.8093892429, 41.2619106565], [-72.8093982954, 41.2619143445], [-72.8094047494, 41.2619130034], [-72.8094071802, 41.2619194575], [-72.8094192501, 41.2619348802], [-72.8094280511, 41.2619482912], [-72.8094350919, 41.2619418371], [-72.8094138019, 41.2619505543], [-72.8093796875, 41.2619645521], [-72.8093644325, 41.2619578466], [-72.8093454894, 41.2619876862], [-72.8093198407, 41.2619909551], [-72.8093045857, 41.2619930506], [-72.8093070164, 41.2620000076], [-72.8093145601, 41.2619967386], [-72.8093452379, 41.2619891949], [-72.8093727306, 41.2619797233], [-72.8093946911, 41.2619759515], [-72.8094177414, 41.2619342096], [-72.8093994688, 41.2619398255], [-72.809386896, 41.2619492132], [-72.8093977924, 41.2619482912], [-72.809379939, 41.2619463634], [-72.80937667, 41.2619555835], [-72.809367869, 41.2619575951], [-72.809345657, 41.2619717605], [-72.809328055, 41.2619643006], [-72.809303496, 41.2619661447], [-72.8092925996, 41.2619582657], [-72.8092746623, 41.2619803939], [-72.8092896659, 41.2620010134], [-72.809308609, 41.2620028574], [-72.8093263786, 41.2620021868], [-72.8093491774, 41.2620157655], [-72.8093600739, 41.2620310206], [-72.8093909193, 41.2620412465], [-72.8094019834, 41.2620525621], [-72.8094081022, 41.2620535679], [-72.8093936015, 41.2620782107], [-72.809382705, 41.2620967347], [-72.8093552962, 41.2621266581], [-72.8093556315, 41.2621332798], [-72.8093469981, 41.262135962], [-72.8093536198, 41.262133196], [-72.8093700483, 41.2621276639], [-72.8093889076, 41.262132274], [-72.8094085213, 41.2621144205], [-72.8094266262, 41.2620833237], [-72.8094189987, 41.262061866], [-72.8094187472, 41.2620240636], [-72.8094115388, 41.2619984988], [-72.8093962837, 41.262000259], [-72.8093899973, 41.2619919609], [-72.8093587328, 41.2620143406], [-72.8093631752, 41.2620176934], [-72.8093629237, 41.2620234769], [-72.809339622, 41.2620311882], [-72.8093369398, 41.2620373908], [-72.8093352634, 41.2620412465], [-72.8093361016, 41.2620438449], [-72.8093527816, 41.2620554119], [-72.8093758319, 41.262062788], [-72.8093951941, 41.2620564178], [-72.8094033245, 41.2620316911], [-72.8094064258, 41.2620362174], [-72.809412377, 41.2620407436], [-72.8094101138, 41.2620552443], [-72.8094246145, 41.2620628718], [-72.8094368521, 41.2620730978], [-72.8094557952, 41.2620677333], [-72.8094605729, 41.2620668951], [-72.8094649315, 41.2620681524], [-72.8094711341, 41.2620547414], [-72.8094526101, 41.2620546576], [-72.8094430547, 41.2620522268], [-72.8094329126, 41.2620742712], [-72.8094148077, 41.2620698288], [-72.8094170708, 41.2620749418], [-72.8093847167, 41.2620903645], [-72.8093871474, 41.2620946392], [-72.8093730658, 41.2620857544], [-72.8093837108, 41.2620862573], [-72.8093834594, 41.2620837428], [-72.8093926795, 41.2620885205], [-72.8093812801, 41.2620854191], [-72.8093791008, 41.2620796356], [-72.8093744908, 41.2620843295], [-72.8093443159, 41.2620843295], [-72.8093451541, 41.2620744389], [-72.8093605768, 41.2620709185], [-72.8093589004, 41.2620651349], [-72.8093578108, 41.2620637938], [-72.8093469981, 41.2620753609], [-72.8093422204, 41.2620729301], [-72.8093040828, 41.26207578], [-72.8092977125, 41.2620860897], [-72.8093020711, 41.2621129118], [-72.8092887439, 41.2621439248], [-72.8092863131, 41.2621487863], [-72.8092836309, 41.2621548213], [-72.8092791047, 41.2621542346], [-72.8092730697, 41.2621433381], [-72.8092611674, 41.2621420808], [-72.809258569, 41.2621415779], [-72.8092551325, 41.2621338665], [-72.8092206828, 41.2621388119], [-72.8092454933, 41.26214711], [-72.8092234489, 41.2621417455], [-72.8092244547, 41.2621404883], [-72.8092144802, 41.2621374708], [-72.8092089482, 41.2621439248], [-72.80920811, 41.2621528096], [-72.8091843054, 41.2621539831], [-72.8092098702, 41.2622205354], [-72.8102311213, 41.2621961441], [-72.8122814186, 41.2622134108], [-72.8156694677, 41.2621361297], [-72.8194024321, 41.2607072666], [-72.8233822435, 41.2585889921], [-72.8285022452, 41.2556400709], [-72.830996532, 41.2518237066], [-72.832562523, 41.2476968765], [-72.8346305061, 41.2406808045], [-72.845935598, 41.2324735802], [-72.8617805801, 41.2262442335], [-72.8778023366, 41.2199488375], [-72.8894784953, 41.2153397128], [-72.9023085907, 41.2103106547], [-72.9126498476, 41.2062528916], [-72.925297888, 41.2012540922], [-72.9362311587, 41.1969293654], [-72.9471158981, 41.1926325504], [-72.9587586969, 41.1880354956], [-72.9698841646, 41.1836749781], [-72.9834362771, 41.1783556547], [-72.995806206, 41.1734589469], [-73.0081481393, 41.1686077528], [-73.0176179297, 41.1648835894], [-73.0302746873, 41.1598683614], [-73.0424703564, 41.1550755054], [-73.0547780078, 41.1502337828], [-73.0671049375, 41.145380158], [-73.0790507421, 41.1406893097], [-73.0916576274, 41.1357027479], [-73.1028899644, 41.131284982], [-73.1138937268, 41.1269406416], [-73.1165148318, 41.1259272695], [-73.1192961987, 41.1248043459], [-73.1230438314, 41.1233352497], [-73.1267175358, 41.1219190434], [-73.1292915344, 41.1208641808], [-73.1340908445, 41.1189747322], [-73.1386298966, 41.1171829328], [-73.1442992482, 41.1149485689], [-73.1566409301, 41.1100848019], [-73.169844104, 41.1048923805], [-73.1823639013, 41.1000079103], [-73.1938331947, 41.0954856221], [-73.206156604, 41.0906222742], [-73.2150019426, 41.0871347319], [-73.2250318117, 41.0832021106], [-73.2358811796, 41.0788886994], [-73.2480783574, 41.074099699], [-73.2600155286, 41.0694116168], [-73.2669775374, 41.0666612629], [-73.2776027732, 41.0624822974], [-73.2872624137, 41.0586355906], [-73.2989006024, 41.0540839657], [-73.3098813146, 41.0497468337], [-73.3204679098, 41.0455786809], [-73.3313387353, 41.0412897449], [-73.3436613902, 41.0364647023], [-73.3484244905, 41.0345851444], [-73.3587212395, 41.0305282194], [-73.3655391634, 41.0278248042], [-73.3687464986, 41.0265943408], [-73.3742326219, 41.0244213324], [-73.3794463333, 41.0223527625], [-73.3820867166, 41.0213146638], [-73.3916309383, 41.0175413825], [-73.4003247321, 41.0141232423], [-73.4085783083, 41.0108475108], [-73.413225906, 41.0090454016], [-73.4177148342, 41.0072567873], [-73.4201935306, 41.0063002445], [-73.4213700145, 41.0058555007], [-73.4241321869, 41.0047542863], [-73.4273018036, 41.0034786444], [-73.430176042, 41.00233946], [-73.4330864064, 41.0011949111], [-73.4359760676, 41.0000625998], [-73.4429555107, 40.9973320272], [-73.4512213245, 40.9940655995], [-73.4567158297, 40.991913043], [-73.4664112609, 40.9880986065], [-73.4765635896, 40.9840828367], [-73.4793381672, 40.9830054268], [-73.4839615412, 40.9811852966], [-73.4890317544, 40.9792126995], [-73.496554764, 40.9762135707], [-73.5067536123, 40.9722066019], [-73.5106575675, 40.9706686065], [-73.5225621331, 40.9659884032], [-73.5326758213, 40.9619950969], [-73.544872161, 40.9572035819], [-73.5556011647, 40.9529710561], [-73.561974261, 40.9504499473], [-73.5705230478, 40.9470798355], [-73.5784743726, 40.9439395554], [-73.5924393777, 40.9384403564], [-73.6063457932, 40.9329701588], [-73.619808387, 40.9276511706], [-73.6340259388, 40.9242539015], [-73.6467103567, 40.9197381511], [-73.6583560891, 40.9144639224], [-73.6698583234, 40.9090898652], [-73.6823242251, 40.9026965685], [-73.6967805773, 40.8950914163], [-73.7099777162, 40.887606293], [-73.7191112246, 40.8819829579], [-73.7212135736, 40.8805959206], [-73.7251290958, 40.8782041445], [-73.7275772821, 40.8765685], [-73.7288244255, 40.8757747337], [-73.7329036463, 40.8731036726], [-73.7363348622, 40.8706254791], [-73.7374786567, 40.8697458822], [-73.7392081786, 40.8682249021], [-73.7413334101, 40.8660380635], [-73.7428831402, 40.8644524589], [-73.74414864, 40.8631558623], [-73.7477799319, 40.8591883723], [-73.7488315254, 40.8579380438], [-73.7501522619, 40.856528962], [-73.7568349857, 40.8489477821], [-73.7590639852, 40.8466475364], [-73.760644393, 40.845048856], [-73.7637476251, 40.8423118293], [-73.7668651063, 40.839609839], [-73.7687638588, 40.8379061334], [-73.7738545239, 40.832188502], [-73.7755170744, 40.8292240743], [-73.7766239047, 40.8267527539], [-73.7775507756, 40.8243877161], [-73.7779035699, 40.8234422375], [-73.7783510797, 40.8218814433], [-73.7816302478, 40.8131990489], [-73.7830727734, 40.8057844173], [-73.7836615182, 40.8038728405], [-73.7851441093, 40.8025321551], [-73.7870877888, 40.8017166797], [-73.7893099152, 40.8010691777], [-73.7919239793, 40.80043911], [-73.7943554856, 40.8004901558], [-73.7982508074, 40.8013677411], [-73.8085135259, 40.8030853607], [-73.8168076705, 40.8037337009], [-73.819691129, 40.8035889454], [-73.8218686637, 40.8033160307], [-73.8252475765, 40.8029364981], [-73.8309141621, 40.8021979686], [-73.8335237, 40.8020573203], [-73.8367375731, 40.8018753491], [-73.8392033614, 40.8016320225], [-73.8429671712, 40.8009781502], [-73.8471618947, 40.8000208531], [-73.8513546064, 40.7992972434], [-73.8546808809, 40.7988020405], [-73.8566468563, 40.7985349093], [-73.8628861774, 40.7978522032], [-73.86516748, 40.7976890076], [-73.8708895538, 40.7976373751], [-73.8750373386, 40.7983561233], [-73.8793786615, 40.7990999334], [-73.881306164, 40.7994175237], [-73.8853212632, 40.8003376052], [-73.8867750205, 40.8005908225], [-73.8882947434, 40.8006890584], [-73.8901454676, 40.800656369], [-73.8930419181, 40.8002919238], [-73.8958956208, 40.7991633844], [-73.8995233923, 40.7981265429], [-73.9037559181, 40.7965442073], [-73.9065027516, 40.7953688968], [-73.9079247415, 40.7947817445], [-73.9099197183, 40.7936545461], [-73.9121052157, 40.7920489926], [-73.9154702984, 40.7893207669], [-73.9169977326, 40.7879512478], [-73.9181635715, 40.786778871], [-73.9191075414, 40.7857458852], [-73.9210120775, 40.7838680875], [-73.9224894717, 40.7826632727], [-73.9242008887, 40.7814849447], [-73.9258118905, 40.7805620972], [-73.9276628662, 40.7800031919], [-73.9297133312, 40.7799741067], [-73.9334976766, 40.7796561811], [-73.9356249198, 40.778888315], [-73.9367480949, 40.7782217022], [-73.9386016689, 40.7770251855], [-73.9391630888, 40.7766855508], [-73.9402350504, 40.7760888431], [-73.9411662798, 40.7753560971], [-73.9416643325, 40.7749040611], [-73.9424235653, 40.7741512824], [-73.943498712, 40.773090804], [-73.9456769172, 40.7708831783], [-73.9472586662, 40.7695134915], [-73.9482356608, 40.7681317348], [-73.9502265304, 40.7657387014], [-73.9510943927, 40.7648864295], [-73.9522560406, 40.7638427988], [-73.9537600894, 40.7622236665], [-73.9549797401, 40.7607253175], [-73.9557180181, 40.759756621], [-73.9563862234, 40.7589734159], [-73.957223827, 40.758067416], [-73.9578144159, 40.7573539484], [-73.9586801827, 40.7562933024], [-73.9597078878, 40.7551661879], [-73.9606428891, 40.7542575058], [-73.9614320453, 40.7535359915], [-73.9621094707, 40.7528649364], [-73.9631552808, 40.7516052201], [-73.9643619396, 40.7501305919], [-73.9652637485, 40.7490081713], [-73.9662087243, 40.7476394903], [-73.9677017927, 40.7453582715], [-73.9686346147, 40.7437516283], [-73.9691854734, 40.7421817817], [-73.9693969488, 40.7404349092], [-73.9693995472, 40.7393650431], [-73.9689229522, 40.7351950463], [-73.9685148373, 40.7326332852], [-73.968424648, 40.730700586], [-73.9698681794, 40.7229427993], [-73.970281994, 40.7201514579], [-73.9707398135, 40.7185709663], [-73.9717360865, 40.7160914317], [-73.9722526632, 40.7148556877], [-73.9731039293, 40.7130757906], [-73.9753247146, 40.7108905446], [-73.9787039626, 40.7095434889], [-73.9805625658, 40.7092872541], [-73.9822462387, 40.7089567557], [-73.9855617005, 40.7081862912], [-73.9881812967, 40.7076170761], [-73.9913601335, 40.7071035169], [-73.9934111852, 40.7065199688], [-73.9966241363, 40.7048424147], [-73.9984711725, 40.7040523365], [-74.0007286705, 40.7029315084], [-74.0023493953, 40.7018411066], [-74.0048257448, 40.7003663108], [-74.0059086867, 40.6999247521], [-74.0081609879, 40.6987689715], [-74.0122236963, 40.69810546], [-74.0191253554, 40.6964560691], [-74.020768879, 40.6956846826], [-74.0229594894, 40.6936466228], [-74.0239394177, 40.6924660318], [-74.0254555363, 40.6904777605], [-74.0284438524, 40.6877049431], [-74.0304248314, 40.684634652], [-74.0334968828, 40.6837473437], [-74.0364076663, 40.6867076643], [-74.0340743959, 40.6920171808], [-74.0326211415, 40.6943211984], [-74.0307825711, 40.6987487711], [-74.0292573161, 40.7039607223], [-74.0296378545, 40.7056453172], [-74.0306524839, 40.7090758625], [-74.0328309406, 40.7100048289], [-74.0355519578, 40.7102834433], [-74.0391936433, 40.7105526701], [-74.0404324047, 40.710673118], [-74.0406516753, 40.710688876], [-74.0408488177, 40.7103936654], [-74.0412509814, 40.7099395338], [-74.041377129, 40.7098530326], [-74.0414089803, 40.7098217681]]}}, {"type": "Feature", "properties": {"date": "2026-07-08", "label": "Jersey City \u2192 Island Heights"}, "geometry": {"type": "LineString", "coordinates": [[-74.0408480633, 40.7098064292], [-74.0412929747, 40.7098578103], [-74.0413301904, 40.7099262904], [-74.0408707783, 40.7101150509], [-74.037464289, 40.7103814278], [-74.0321181435, 40.7095006574], [-74.0300650802, 40.7080607302], [-74.0312325116, 40.703228144], [-74.0362686943, 40.6938409992], [-74.041333124, 40.682687033], [-74.045390049, 40.6677959953], [-74.0496757999, 40.6519966107], [-74.049308002, 40.6425165944], [-74.0509591531, 40.629340075], [-74.0471479017, 40.6124945451], [-74.0452788211, 40.6016277429], [-74.0443242062, 40.5838974193], [-74.040674977, 40.5649934616], [-74.0359497629, 40.5526601616], [-74.0302511584, 40.5355127156], [-74.0231441427, 40.5209073331], [-74.0113172773, 40.5051313341], [-74.0034347679, 40.4951257724], [-73.9978902228, 40.487235887], [-73.9880689792, 40.4768827278], [-73.9804618992, 40.4649484903], [-73.9743168745, 40.4525145236], [-73.9705796354, 40.441452004], [-73.9670596551, 40.4288421851], [-73.9647024125, 40.4190298263], [-73.962585479, 40.4085518606], [-73.9612142835, 40.3964717779], [-73.9609856252, 40.3817259986], [-73.9612934086, 40.3677261248], [-73.9628809411, 40.3524522856], [-73.9650767483, 40.3391336929], [-73.9670899976, 40.3287858143], [-73.9661140088, 40.3194130864], [-73.9655233361, 40.3073123004], [-73.9651582204, 40.2998507302], [-73.9650143869, 40.2938052826], [-73.9655808359, 40.2836019918], [-73.9679702651, 40.2742191218], [-73.9712965395, 40.2650943305], [-73.9769874327, 40.2506799717], [-73.9809257537, 40.2399316896], [-73.9836230502, 40.2312561683], [-73.9868182316, 40.2211183403], [-73.991613267, 40.2088868804], [-73.9958851878, 40.1981929131], [-73.9996225107, 40.18814913], [-74.0036889911, 40.1756568253], [-74.0064009558, 40.1666809805], [-74.0085465554, 40.1595023833], [-74.0109676681, 40.1515816525], [-74.0138010029, 40.1418060903], [-74.0166745707, 40.1320988405], [-74.0191499982, 40.1239146665], [-74.0223010909, 40.1130209584], [-74.0242571756, 40.1071496028], [-74.0284527373, 40.1007197611], [-74.0337851364, 40.102339983], [-74.0438331943, 40.1062720176], [-74.0456507262, 40.1066551544], [-74.0496881213, 40.1061902102], [-74.0529217757, 40.1042446867], [-74.0565912891, 40.101747131], [-74.0621924959, 40.0945840403], [-74.0671295207, 40.0904147141], [-74.0674899425, 40.0867305323], [-74.0667909756, 40.0837927591], [-74.0653279144, 40.0798031408], [-74.062615782, 40.0763782952], [-74.0601772349, 40.0720368885], [-74.0546885971, 40.0674313679], [-74.0503379703, 40.0639812928], [-74.0525142476, 40.0596143212], [-74.0513978619, 40.0539205782], [-74.050185252, 40.049734069], [-74.0519493911, 40.0459047128], [-74.0544683207, 40.0418066327], [-74.0552318282, 40.0383130554], [-74.0561691765, 40.0349259283], [-74.0657100454, 40.0256786775], [-74.0775069874, 40.0152673479], [-74.0862432774, 40.0065433793], [-74.099387778, 39.9981708638], [-74.1066850629, 39.9825353455], [-74.105748469, 39.9738513585], [-74.1049215104, 39.9627013318], [-74.1023836378, 39.9483825266], [-74.1058712639, 39.9439997133], [-74.1210540757, 39.9386317749], [-74.1269807518, 39.9403507356], [-74.1320362967, 39.9419623241], [-74.1351049952, 39.9445833452], [-74.1360757872, 39.9449385703], [-74.1361754481, 39.9449607823], [-74.1360705905, 39.9450100679], [-74.1360766254, 39.9449454434], [-74.1361276712, 39.9449673202]]}}]}